{"type":"FeatureCollection","features":[{"type":"Feature","properties":{"ST_NM":"Jammu & Kashmir"},"geometry":{"type":"MultiPolygon","coordinates":[[[[75.889,32.576],[75.915,32.681],[75.926,32.721],[75.929,32.757],[75.825,32.854],[75.825,32.93],[75.884,32.931],[75.951,32.884],[76.034,32.918],[76.099,32.969],[76.111,33.003],[76.255,33.032],[76.292,33.104],[76.402,33.183],[76.487,33.18],[76.565,33.209],[76.645,33.162],[76.748,33.179],[76.796,33.255],[76.687,33.339],[76.665,33.429],[76.397,33.668],[76.25,33.608],[76.21,33.786],[76.057,33.986],[75.943,33.987],[75.794,34.103],[75.742,34.198],[75.631,34.223],[75.434,34.35],[75.392,34.543],[75.267,34.598],[75.232,34.795],[75.161,34.862],[74.928,34.813],[74.634,34.94],[74.521,35.106],[74.269,35.087],[74.124,35.105],[74.066,35.049],[74.03,34.878],[73.774,34.797],[73.619,34.586],[73.448,34.574],[73.4,34.359],[73.493,34.22],[73.515,34.007],[73.586,33.899],[73.563,33.676],[73.62,33.578],[73.559,33.368],[73.658,33.205],[73.689,33.088],[73.823,33.006],[73.958,32.987],[74.055,32.912],[74.178,32.883],[74.384,32.758],[74.617,32.755],[74.681,32.486],[74.83,32.486],[74.947,32.443],[75.11,32.47],[75.318,32.334],[75.34,32.342],[75.483,32.318],[75.608,32.382],[75.727,32.418],[75.762,32.476],[75.82,32.487],[75.841,32.509],[75.846,32.521],[75.889,32.576]]],[[[76.461,33.18],[76.447,33.181],[76.46,33.18],[76.461,33.18]]],[[[75.727,32.418],[75.745,32.445],[75.762,32.476],[75.727,32.418]]]]}},{"type":"Feature","properties":{"ST_NM":"Gujarat"},"geometry":{"type":"MultiPolygon","coordinates":[[[[72.677,21.156],[72.665,21.148],[72.678,21.102],[72.698,21.108],[72.703,21.146],[72.677,21.156]]],[[[72.353,21.613],[72.346,21.602],[72.352,21.586],[72.365,21.588],[72.353,21.613]]],[[[72.723,21.666],[72.722,21.643],[72.746,21.647],[72.746,21.659],[72.723,21.666]]],[[[72.274,21.75],[72.268,21.741],[72.279,21.719],[72.283,21.735],[72.274,21.75]]],[[[69.628,22.459],[69.592,22.428],[69.637,22.407],[69.657,22.425],[69.628,22.459]]],[[[69.302,22.474],[69.293,22.46],[69.32,22.451],[69.328,22.463],[69.302,22.474]]],[[[69.137,22.478],[69.126,22.476],[69.092,22.456],[69.095,22.442],[69.108,22.438],[69.108,22.461],[69.137,22.478]]],[[[69.325,22.527],[69.35,22.504],[69.355,22.523],[69.325,22.527]]],[[[69.952,22.551],[69.943,22.551],[69.938,22.54],[69.954,22.537],[69.952,22.551]]],[[[69.919,22.553],[69.895,22.512],[69.942,22.518],[69.919,22.553]]],[[[70.009,22.593],[69.967,22.578],[69.964,22.545],[70.027,22.568],[70.009,22.593]]],[[[70.455,22.996],[70.434,22.982],[70.439,22.978],[70.455,22.996]]],[[[70.448,23.052],[70.42,23.027],[70.438,23.021],[70.448,23.052]]],[[[70.482,23.065],[70.465,23.056],[70.47,23.051],[70.482,23.065]]],[[[68.558,23.314],[68.559,23.253],[68.615,23.272],[68.558,23.314]]],[[[68.588,23.319],[68.6,23.301],[68.609,23.313],[68.588,23.319]]],[[[68.506,23.342],[68.512,23.318],[68.536,23.317],[68.528,23.337],[68.506,23.342]]],[[[68.589,23.374],[68.574,23.361],[68.594,23.339],[68.6,23.358],[68.589,23.374]]],[[[68.537,23.405],[68.552,23.387],[68.559,23.363],[68.567,23.377],[68.537,23.405]]],[[[68.507,23.457],[68.504,23.431],[68.521,23.437],[68.507,23.457]]],[[[68.473,23.48],[68.462,23.453],[68.467,23.406],[68.485,23.405],[68.495,23.457],[68.473,23.48]]],[[[68.481,23.501],[68.473,23.496],[68.474,23.481],[68.487,23.486],[68.481,23.501]]],[[[68.48,23.555],[68.457,23.542],[68.475,23.538],[68.48,23.555]]],[[[68.482,23.597],[68.464,23.576],[68.442,23.563],[68.443,23.536],[68.466,23.552],[68.485,23.575],[68.482,23.597]]],[[[68.458,23.6],[68.452,23.595],[68.462,23.577],[68.467,23.592],[68.458,23.6]]],[[[68.456,23.625],[68.441,23.603],[68.467,23.602],[68.456,23.625]]],[[[68.485,23.628],[68.47,23.616],[68.49,23.603],[68.485,23.628]]],[[[68.358,23.805],[68.338,23.73],[68.269,23.65],[68.347,23.598],[68.418,23.724],[68.358,23.805]]],[[[68.308,23.824],[68.29,23.817],[68.297,23.812],[68.298,23.804],[68.278,23.797],[68.264,23.76],[68.324,23.734],[68.322,23.803],[68.313,23.822],[68.308,23.824]]],[[[68.498,23.831],[68.448,23.806],[68.488,23.737],[68.523,23.804],[68.498,23.831]]],[[[68.396,23.878],[68.343,23.837],[68.4,23.79],[68.438,23.839],[68.396,23.878]]],[[[68.248,23.88],[68.216,23.867],[68.233,23.842],[68.248,23.88]]],[[[68.449,23.938],[68.386,23.906],[68.452,23.882],[68.449,23.938]]],[[[68.535,23.946],[68.534,23.924],[68.487,23.891],[68.521,23.857],[68.582,23.915],[68.58,23.923],[68.562,23.923],[68.558,23.923],[68.559,23.928],[68.557,23.932],[68.542,23.934],[68.535,23.946]]],[[[68.498,23.967],[68.444,23.968],[68.48,23.89],[68.518,23.924],[68.498,23.967]]],[[[68.358,23.975],[68.209,23.811],[68.193,23.731],[68.238,23.681],[68.274,23.797],[68.296,23.804],[68.296,23.81],[68.289,23.815],[68.289,23.817],[68.294,23.821],[68.306,23.825],[68.315,23.824],[68.338,23.819],[68.358,23.975]]],[[[72.516,21.881],[72.612,21.861],[72.518,21.706],[72.608,21.682],[72.613,21.557],[72.671,21.515],[72.593,21.312],[72.665,21.153],[72.681,21.158],[72.716,21.141],[72.7,21.061],[72.783,20.9],[72.883,20.61],[72.845,20.475],[72.896,20.421],[72.802,20.374],[72.738,20.246],[72.729,20.137],[72.873,20.227],[72.96,20.213],[72.935,20.294],[73.045,20.326],[73.167,20.312],[73.207,20.122],[73.302,20.207],[73.418,20.201],[73.406,20.381],[73.468,20.495],[73.432,20.595],[73.451,20.714],[73.741,20.567],[73.84,20.623],[73.836,20.701],[73.934,20.768],[73.939,20.839],[73.792,21.067],[73.826,21.266],[73.943,21.296],[73.956,21.392],[74.052,21.454],[74.302,21.478],[74.287,21.557],[74.063,21.558],[73.855,21.495],[73.819,21.597],[73.885,21.709],[73.822,21.811],[74.142,21.952],[74.119,22.211],[74.068,22.359],[74.195,22.341],[74.234,22.437],[74.101,22.432],[74.081,22.507],[74.21,22.565],[74.275,22.646],[74.381,22.641],[74.463,22.813],[74.379,22.908],[74.32,23.06],[74.247,23.176],[74.124,23.177],[74.133,23.263],[74.021,23.331],[73.891,23.335],[73.824,23.445],[73.629,23.451],[73.657,23.622],[73.567,23.652],[73.396,23.783],[73.356,23.854],[73.416,23.922],[73.41,24.05],[73.22,24.098],[73.079,24.185],[73.183,24.335],[72.977,24.451],[72.973,24.359],[72.728,24.362],[72.654,24.457],[72.537,24.506],[72.459,24.409],[72.352,24.554],[72.289,24.54],[72.079,24.655],[71.777,24.672],[71.654,24.637],[71.48,24.678],[71.289,24.613],[71.098,24.687],[70.991,24.605],[70.988,24.367],[70.879,24.246],[70.722,24.217],[70.574,24.255],[70.574,24.422],[70.372,24.354],[70.108,24.294],[70.016,24.17],[69.73,24.172],[69.588,24.291],[69.484,24.268],[69.309,24.281],[69.193,24.238],[69.098,24.272],[69.005,24.223],[68.943,24.302],[68.851,24.221],[68.77,24.273],[68.753,23.97],[68.551,23.968],[68.537,23.947],[68.544,23.935],[68.558,23.933],[68.56,23.93],[68.56,23.924],[68.58,23.924],[68.588,23.922],[68.613,23.903],[68.572,23.88],[68.672,23.862],[68.631,23.759],[68.489,23.635],[68.507,23.463],[68.637,23.344],[68.652,23.155],[69.197,22.838],[69.319,22.832],[69.446,22.778],[69.695,22.742],[69.753,22.82],[69.866,22.873],[70.106,22.909],[70.235,22.98],[70.377,22.9],[70.171,22.557],[69.946,22.528],[69.945,22.515],[69.923,22.503],[69.911,22.472],[69.793,22.403],[69.56,22.367],[69.423,22.317],[69.34,22.33],[69.223,22.258],[69.006,22.438],[68.936,22.312],[68.953,22.248],[69.27,21.907],[69.602,21.637],[70.007,21.199],[70.252,20.979],[70.439,20.853],[70.822,20.692],[70.868,20.714],[70.874,20.727],[70.911,20.737],[70.924,20.744],[70.927,20.737],[70.938,20.733],[70.991,20.746],[70.991,20.732],[71.004,20.743],[71.013,20.74],[71.146,20.757],[71.323,20.846],[71.437,20.868],[71.51,20.944],[71.637,20.973],[71.888,21.102],[72.048,21.161],[72.121,21.325],[72.235,21.457],[72.306,21.628],[72.26,21.723],[72.256,21.89],[72.364,22.202],[72.637,22.284],[72.547,22.15],[72.507,21.994],[72.516,21.881]],[[74.176,22.396],[74.159,22.413],[74.173,22.419],[74.176,22.396]]]]}},{"type":"Feature","properties":{"ST_NM":"Tamil Nadu"},"geometry":{"type":"MultiPolygon","coordinates":[[[[78.939,9.187],[78.917,9.186],[78.919,9.176],[78.939,9.187]]],[[[79.087,9.193],[79.071,9.206],[79.062,9.199],[79.087,9.193]]],[[[79.327,9.297],[79.211,9.289],[79.331,9.231],[79.327,9.297]]],[[[79.79,11.876],[79.796,11.89],[79.781,11.902],[79.771,11.894],[79.79,11.876]]],[[[79.695,11.885],[79.693,11.884],[79.763,11.943],[79.841,11.955],[79.858,12.005],[79.85,12.05],[79.875,12.043],[80.019,12.282],[80.138,12.432],[80.254,12.767],[80.26,12.937],[80.342,13.27],[80.27,13.563],[80.225,13.483],[80.018,13.501],[79.938,13.349],[79.684,13.248],[79.578,13.262],[79.548,13.323],[79.429,13.334],[79.433,13.197],[79.311,13.127],[79.239,13.146],[79.165,13.019],[78.994,13.088],[78.812,13.086],[78.632,12.985],[78.636,12.925],[78.564,12.708],[78.38,12.622],[78.239,12.699],[78.232,12.763],[78.075,12.84],[77.992,12.82],[77.835,12.868],[77.76,12.696],[77.608,12.63],[77.635,12.486],[77.614,12.363],[77.476,12.211],[77.737,12.177],[77.778,12.119],[77.675,11.962],[77.501,11.939],[77.442,11.781],[77.252,11.811],[77.113,11.771],[77.014,11.811],[76.909,11.791],[76.839,11.657],[76.86,11.61],[76.562,11.62],[76.512,11.705],[76.431,11.666],[76.306,11.571],[76.266,11.48],[76.37,11.455],[76.547,11.359],[76.523,11.269],[76.751,11.118],[76.658,10.937],[76.829,10.87],[76.909,10.779],[76.842,10.593],[76.832,10.303],[76.995,10.228],[77.176,10.355],[77.265,10.263],[77.276,9.973],[77.223,9.731],[77.181,9.657],[77.239,9.582],[77.357,9.587],[77.399,9.47],[77.283,9.3],[77.269,9.152],[77.149,9.02],[77.265,8.84],[77.195,8.743],[77.284,8.546],[77.1,8.291],[77.318,8.121],[77.556,8.079],[77.589,8.141],[77.733,8.169],[77.814,8.246],[78.041,8.358],[78.133,8.499],[78.126,8.635],[78.213,8.962],[78.422,9.113],[78.574,9.128],[78.673,9.194],[78.988,9.275],[78.988,9.354],[78.9,9.457],[78.925,9.586],[78.992,9.713],[79.263,10.036],[79.226,10.104],[79.276,10.238],[79.439,10.325],[79.798,10.271],[79.871,10.34],[79.849,10.827],[79.744,10.913],[79.754,11.004],[79.852,10.988],[79.838,11.355],[79.763,11.538],[79.795,11.785],[79.723,11.797],[79.739,11.843],[79.764,11.831],[79.808,11.832],[79.808,11.834],[79.776,11.838],[79.773,11.837],[79.776,11.838],[79.773,11.837],[79.746,11.861],[79.695,11.885],[79.693,11.884],[79.695,11.885]],[[79.637,11.887],[79.65,11.849],[79.602,11.857],[79.637,11.887]],[[79.642,11.905],[79.62,12],[79.628,12.03],[79.654,12.024],[79.638,11.977],[79.643,11.946],[79.671,11.933],[79.642,11.905]],[[79.689,11.972],[79.685,11.953],[79.661,11.957],[79.663,11.968],[79.689,11.972]],[[79.67,11.815],[79.646,11.816],[79.649,11.844],[79.67,11.815]],[[79.676,11.814],[79.688,11.812],[79.691,11.803],[79.676,11.802],[79.676,11.814]]]]}},{"type":"Feature","properties":{"ST_NM":"Andaman & Nicobar Island"},"geometry":{"type":"MultiPolygon","coordinates":[[[[93.713,7.444],[93.633,7.371],[93.724,7.308],[93.756,7.374],[93.713,7.444]]],[[[93.383,8.023],[93.311,7.962],[93.378,7.884],[93.383,8.023]]],[[[93.548,8.026],[93.508,7.985],[93.573,7.931],[93.582,7.992],[93.548,8.026]]],[[[93.58,8.124],[93.572,8.068],[93.592,8.039],[93.59,8.101],[93.58,8.124]]],[[[93.235,8.264],[93.22,8.246],[93.237,8.224],[93.249,8.241],[93.235,8.264]]],[[[93.127,8.356],[93.096,8.339],[93.085,8.276],[93.121,8.224],[93.127,8.356]]],[[[93.044,8.471],[93.036,8.454],[93.044,8.442],[93.059,8.441],[93.056,8.461],[93.044,8.471]]],[[[93.614,8.575],[93.611,8.544],[93.623,8.526],[93.629,8.47],[93.642,8.468],[93.636,8.523],[93.622,8.533],[93.614,8.575]]],[[[92.795,9.239],[92.725,9.219],[92.733,9.123],[92.832,9.164],[92.795,9.239]]],[[[92.706,11.289],[92.696,11.285],[92.694,11.27],[92.706,11.264],[92.706,11.289]]],[[[92.642,11.51],[92.598,11.348],[92.691,11.371],[92.642,11.51]]],[[[92.56,11.538],[92.553,11.531],[92.562,11.518],[92.569,11.528],[92.56,11.538]]],[[[92.61,11.559],[92.607,11.537],[92.616,11.535],[92.62,11.556],[92.61,11.559]]],[[[92.597,11.542],[92.597,11.563],[92.589,11.562],[92.584,11.549],[92.597,11.542]]],[[[92.612,11.588],[92.601,11.586],[92.601,11.567],[92.619,11.573],[92.612,11.588]]],[[[92.23,11.588],[92.208,11.55],[92.27,11.523],[92.27,11.585],[92.23,11.588]]],[[[92.541,11.603],[92.533,11.571],[92.554,11.562],[92.563,11.593],[92.541,11.603]]],[[[93.032,11.837],[93.046,11.814],[93.072,11.835],[93.063,11.845],[93.032,11.837]]],[[[92.756,11.967],[92.739,11.962],[92.746,11.945],[92.767,11.955],[92.756,11.967]]],[[[92.595,11.977],[92.597,11.93],[92.609,11.94],[92.601,11.971],[92.595,11.977]]],[[[92.975,12.043],[92.935,11.985],[93.053,11.904],[92.975,12.043]]],[[[92.991,12.109],[92.96,12.106],[92.964,12.069],[92.992,12.044],[93.005,12.104],[92.991,12.109]]],[[[93.12,12.148],[93.11,12.143],[93.115,12.13],[93.124,12.14],[93.12,12.148]]],[[[92.964,12.151],[92.962,12.124],[92.983,12.112],[92.992,12.144],[92.964,12.151]]],[[[93.029,12.166],[93.002,12.133],[93.009,12.102],[93.008,12.076],[93.034,12.1],[93.029,12.166]]],[[[93.074,12.21],[93.037,12.133],[93.093,12.113],[93.074,12.21]]],[[[92.935,12.225],[92.927,12.222],[92.926,12.207],[92.941,12.217],[92.935,12.225]]],[[[92.731,12.242],[92.721,12.19],[92.763,12.182],[92.763,12.229],[92.731,12.242]]],[[[92.901,12.255],[92.891,12.234],[92.914,12.232],[92.901,12.255]]],[[[93.079,12.26],[93.067,12.228],[93.084,12.223],[93.079,12.26]]],[[[92.749,12.289],[92.74,12.276],[92.734,12.254],[92.742,12.255],[92.749,12.289]]],[[[92.767,12.274],[92.767,12.287],[92.754,12.282],[92.759,12.269],[92.767,12.274]]],[[[93.867,12.295],[93.846,12.272],[93.872,12.268],[93.867,12.295]]],[[[92.713,12.297],[92.7,12.276],[92.713,12.248],[92.724,12.296],[92.713,12.297]]],[[[92.934,12.308],[92.93,12.284],[92.914,12.273],[92.927,12.251],[92.942,12.276],[92.934,12.308]]],[[[92.86,12.407],[92.863,12.38],[92.891,12.393],[92.86,12.407]]],[[[92.956,12.43],[92.928,12.41],[92.919,12.365],[92.933,12.361],[92.956,12.43]]],[[[92.675,12.542],[92.669,12.535],[92.677,12.523],[92.685,12.539],[92.675,12.542]]],[[[92.71,12.829],[92.701,12.814],[92.7,12.786],[92.712,12.777],[92.71,12.829]]],[[[92.729,12.864],[92.719,12.863],[92.712,12.845],[92.719,12.837],[92.729,12.864]]],[[[92.794,12.913],[92.775,12.905],[92.793,12.892],[92.794,12.913]]],[[[92.877,12.932],[92.86,12.926],[92.872,12.916],[92.877,12.932]]],[[[92.696,12.992],[92.665,12.882],[92.72,12.874],[92.696,12.992]]],[[[93.006,12.997],[92.993,12.991],[92.973,12.97],[92.959,12.989],[92.953,12.98],[92.972,12.956],[92.993,12.986],[93.006,12.997]]],[[[92.927,13.024],[92.921,13.001],[92.944,12.998],[92.939,13.026],[92.927,13.024]]],[[[92.717,13.098],[92.696,13.09],[92.7,13.073],[92.717,13.098]]],[[[93.025,13.326],[93.015,13.309],[93.024,13.305],[93.025,13.326]]],[[[92.843,13.44],[92.822,13.435],[92.835,13.42],[92.843,13.44]]],[[[94.271,13.443],[94.276,13.469],[94.253,13.462],[94.271,13.443]]],[[[93.017,13.675],[92.982,13.665],[93.008,13.647],[93.017,13.675]]],[[[93.887,6.798],[93.931,7.01],[93.849,7.241],[93.691,7.191],[93.656,7.127],[93.678,7.016],[93.747,6.962],[93.835,6.757],[93.887,6.798]]],[[[93.455,8.175],[93.486,8.052],[93.552,8.074],[93.455,8.175]]],[[[92.386,10.532],[92.499,10.511],[92.598,10.7],[92.518,10.897],[92.382,10.763],[92.421,10.616],[92.386,10.532]]],[[[92.765,11.94],[92.717,11.946],[92.763,11.999],[92.772,12.047],[92.736,12.084],[92.736,12.104],[92.758,12.177],[92.718,12.177],[92.663,12.218],[92.613,11.959],[92.611,11.943],[92.606,11.924],[92.594,11.899],[92.563,11.947],[92.514,11.85],[92.648,11.522],[92.727,11.519],[92.786,11.867],[92.765,11.94]]],[[[92.769,12.229],[92.765,12.176],[92.739,12.099],[92.763,12.065],[92.793,12.084],[92.874,12.206],[92.769,12.229]]],[[[92.921,12.427],[92.976,12.542],[92.969,12.74],[92.928,12.884],[92.823,12.896],[92.724,12.827],[92.736,12.64],[92.701,12.6],[92.7,12.334],[92.83,12.305],[92.921,12.427]]],[[[93.047,13.279],[93.038,13.55],[92.917,13.536],[92.827,13.329],[92.829,13.209],[92.788,13.017],[92.794,12.915],[92.939,12.972],[93.034,13.081],[93.047,13.279]]]]}},{"type":"Feature","properties":{"ST_NM":"Andhra Pradesh"},"geometry":{"type":"MultiPolygon","coordinates":[[[[81.394,16.334],[81.268,16.311],[81.275,16.278],[81.394,16.334]]],[[[84.769,19.08],[84.668,19.131],[84.604,19.029],[84.517,19.046],[84.423,18.947],[84.34,18.801],[84.099,18.754],[83.878,18.827],[83.796,19.016],[83.734,18.984],[83.612,19.101],[83.482,19.008],[83.343,19.015],[83.396,18.879],[83.092,18.664],[83.034,18.573],[83.075,18.401],[82.985,18.364],[82.807,18.448],[82.775,18.34],[82.598,18.265],[82.609,18.374],[82.49,18.523],[82.37,18.418],[82.341,18.224],[82.345,18.056],[82.033,18.066],[81.945,17.992],[81.767,17.901],[81.803,17.852],[81.632,17.771],[81.512,17.598],[81.502,17.457],[81.394,17.364],[81.199,17.336],[81.172,17.241],[80.994,17.188],[80.914,17.209],[80.832,17.046],[80.693,17.077],[80.569,17.146],[80.505,17.109],[80.451,16.953],[80.593,16.935],[80.572,16.771],[80.328,16.879],[80.271,17.018],[80.054,16.973],[80,16.871],[80.056,16.753],[79.951,16.64],[79.783,16.737],[79.435,16.589],[79.274,16.568],[79.238,16.526],[79.233,16.257],[79.185,16.224],[79.028,16.251],[78.916,16.198],[78.929,16.129],[78.746,16.028],[78.644,16.098],[78.566,16.063],[78.412,16.087],[78.275,16.041],[78.249,15.943],[78.108,15.834],[77.894,15.901],[77.805,15.871],[77.514,15.926],[77.253,15.962],[77.081,15.914],[77.031,15.634],[77.042,15.364],[77.153,15.291],[77.169,15.174],[77.114,15.034],[76.881,15.034],[76.801,15.096],[76.768,14.975],[76.869,14.969],[76.838,14.79],[76.765,14.602],[76.869,14.48],[76.943,14.246],[77.055,14.246],[77.158,14.344],[77.286,14.283],[77.401,14.336],[77.506,14.268],[77.517,14.179],[77.396,14.172],[77.39,14.014],[77.141,14.005],[76.948,14.118],[77.042,13.932],[76.975,13.817],[77.041,13.776],[77.168,13.822],[77.247,13.901],[77.432,13.834],[77.536,13.715],[77.92,13.905],[78.115,13.862],[78.155,13.659],[78.259,13.584],[78.39,13.591],[78.365,13.365],[78.578,13.282],[78.469,12.974],[78.356,12.938],[78.252,12.857],[78.232,12.763],[78.239,12.699],[78.38,12.622],[78.564,12.708],[78.636,12.925],[78.632,12.985],[78.812,13.086],[78.994,13.088],[79.165,13.019],[79.239,13.146],[79.311,13.127],[79.433,13.197],[79.429,13.334],[79.548,13.323],[79.578,13.262],[79.684,13.248],[79.938,13.349],[80.018,13.501],[80.225,13.483],[80.27,13.563],[80.236,13.683],[80.249,13.788],[80.145,14.056],[80.129,14.184],[80.173,14.347],[80.195,14.564],[80.114,14.733],[80.046,15.05],[80.13,15.38],[80.197,15.463],[80.24,15.614],[80.345,15.752],[80.512,15.858],[80.731,15.886],[80.816,15.809],[80.839,15.707],[80.96,15.736],[81.045,15.897],[81.153,15.975],[81.258,16.319],[81.382,16.359],[81.65,16.338],[81.726,16.307],[81.968,16.396],[82.298,16.57],[82.365,16.826],[82.249,16.897],[82.301,17.024],[82.56,17.256],[82.753,17.366],[82.993,17.471],[83.217,17.59],[83.416,17.807],[83.475,17.911],[83.703,18.102],[84.118,18.301],[84.135,18.35],[84.555,18.786],[84.581,18.867],[84.769,19.08]],[[82.206,16.747],[82.23,16.729],[82.312,16.734],[82.263,16.701],[82.225,16.721],[82.206,16.747]]]]}},{"type":"Feature","properties":{"ST_NM":"Dadra and Nagar Haveli and Daman and Diu"},"geometry":{"type":"MultiPolygon","coordinates":[[[[72.802,20.374],[72.896,20.421],[72.845,20.475],[72.802,20.374]]],[[[70.925,20.738],[70.882,20.729],[70.899,20.699],[70.918,20.71],[70.976,20.704],[70.965,20.728],[70.96,20.736],[70.938,20.733],[70.925,20.738]]],[[[70.991,20.732],[71.013,20.74],[71.004,20.743],[70.991,20.732]]],[[[72.96,20.213],[72.994,20.118],[73.153,20.073],[73.207,20.122],[73.167,20.312],[73.045,20.326],[72.935,20.294],[72.96,20.213]]]]}},{"type":"Feature","properties":{"ST_NM":"Bihar"},"geometry":{"type":"MultiPolygon","coordinates":[[[[84.507,24.263],[84.511,24.268],[84.505,24.282],[84.497,24.277],[84.507,24.263]]],[[[83.867,27.345],[83.995,27.179],[83.951,27.117],[84.034,27.042],[84.062,26.889],[84.238,26.867],[84.335,26.682],[84.281,26.597],[84.161,26.636],[84.057,26.541],[83.916,26.504],[84.071,26.388],[84.18,26.372],[84.166,26.259],[84.011,26.188],[84.058,26.097],[84.3,25.946],[84.537,25.876],[84.629,25.791],[84.525,25.676],[84.334,25.735],[84.225,25.662],[84.085,25.636],[83.929,25.56],[83.791,25.397],[83.418,25.247],[83.358,25.197],[83.328,25.014],[83.395,24.783],[83.488,24.736],[83.542,24.614],[83.506,24.526],[83.725,24.504],[83.936,24.547],[84.054,24.611],[84.329,24.489],[84.343,24.395],[84.462,24.338],[84.827,24.525],[84.911,24.372],[85.039,24.425],[85.176,24.43],[85.286,24.519],[85.672,24.582],[85.667,24.675],[85.784,24.799],[85.885,24.801],[85.957,24.732],[86.112,24.736],[86.132,24.612],[86.299,24.587],[86.319,24.509],[86.422,24.38],[86.606,24.6],[86.675,24.562],[86.798,24.616],[86.861,24.551],[86.942,24.631],[87.05,24.625],[87.083,24.809],[87.153,24.863],[87.183,25.065],[87.297,25.09],[87.33,25.224],[87.479,25.241],[87.573,25.334],[87.69,25.311],[87.793,25.221],[87.792,25.449],[88.033,25.554],[88.057,25.686],[87.907,25.78],[87.829,25.872],[87.849,26.044],[87.966,26.084],[88.044,26.178],[88.231,26.289],[88.28,26.377],[88.25,26.449],[88.112,26.539],[88.098,26.434],[88.01,26.355],[87.92,26.432],[87.796,26.468],[87.587,26.394],[87.479,26.44],[87.158,26.406],[87.016,26.534],[86.897,26.462],[86.735,26.424],[86.346,26.617],[86.195,26.615],[86.03,26.666],[85.852,26.608],[85.742,26.645],[85.736,26.795],[85.609,26.857],[85.337,26.741],[85.209,26.76],[85.196,26.869],[85.033,26.874],[84.962,26.963],[84.829,27.021],[84.646,27.047],[84.691,27.223],[84.626,27.337],[84.277,27.397],[84.117,27.521],[84.026,27.435],[83.845,27.442],[83.867,27.345]]]]}},{"type":"Feature","properties":{"ST_NM":"Lakshadweep"},"geometry":{"type":"MultiPolygon","coordinates":[[[[74.101,11.204],[74.09,11.298],[73.991,11.352],[74.012,11.241],[74.101,11.204]]],[[[71.845,11.835],[71.786,12.002],[71.734,11.961],[71.782,11.835],[71.845,11.835]]],[[[72.265,10.011],[72.301,10.03],[72.342,10.099],[72.334,10.131],[72.245,10.056],[72.265,10.011]]],[[[72.179,11.491],[72.195,11.591],[72.137,11.552],[72.179,11.491]]],[[[72.096,11.192],[72.025,11.188],[72.043,11.128],[72.083,11.142],[72.096,11.192]]],[[[71.901,12.285],[71.926,12.378],[71.88,12.394],[71.901,12.285]]],[[[73.063,8.329],[73.01,8.303],[73.016,8.266],[73.07,8.283],[73.063,8.329]]],[[[73.646,10.053],[73.666,10.138],[73.62,10.103],[73.646,10.053]]],[[[72.647,10.578],[72.633,10.578],[72.615,10.553],[72.651,10.561],[72.647,10.578]]],[[[73.67,10.817],[73.678,10.801],[73.7,10.816],[73.67,10.817]]],[[[73.009,11.467],[73.011,11.488],[72.997,11.492],[73,11.478],[73.009,11.467]]],[[[72.719,11.695],[72.708,11.7],[72.7,11.688],[72.709,11.679],[72.719,11.695]]],[[[72.722,11.112],[72.733,11.125],[72.722,11.13],[72.722,11.112]]]]}},{"type":"Feature","properties":{"ST_NM":"Madhya Pradesh"},"geometry":{"type":"MultiPolygon","coordinates":[[[[74.176,22.396],[74.173,22.419],[74.159,22.413],[74.176,22.396]]],[[[74.142,21.952],[74.288,21.935],[74.385,22.018],[74.524,21.907],[74.509,21.722],[74.586,21.663],[74.822,21.608],[74.859,21.63],[75.056,21.563],[75.105,21.467],[75.218,21.409],[75.547,21.37],[75.619,21.391],[75.969,21.392],[76.099,21.372],[76.16,21.257],[76.184,21.088],[76.377,21.075],[76.492,21.196],[76.625,21.191],[76.628,21.328],[76.794,21.488],[76.798,21.595],[76.894,21.598],[77.072,21.719],[77.21,21.692],[77.28,21.757],[77.5,21.747],[77.562,21.666],[77.571,21.528],[77.442,21.471],[77.562,21.396],[77.674,21.371],[77.903,21.377],[78.174,21.497],[78.185,21.557],[78.427,21.6],[78.626,21.476],[78.937,21.486],[78.98,21.616],[79.11,21.608],[79.241,21.714],[79.495,21.673],[79.582,21.543],[79.739,21.602],[79.863,21.53],[80.07,21.554],[80.195,21.634],[80.267,21.62],[80.377,21.521],[80.455,21.403],[80.6,21.325],[80.663,21.331],[80.737,21.473],[80.714,21.672],[80.818,21.748],[80.84,21.947],[80.924,22.121],[81.121,22.294],[81.117,22.441],[81.231,22.451],[81.33,22.524],[81.396,22.445],[81.523,22.536],[81.616,22.536],[81.686,22.649],[81.773,22.676],[81.777,22.873],[81.948,22.957],[81.946,23.077],[82.123,23.103],[82.195,23.321],[82.106,23.397],[81.978,23.423],[81.924,23.531],[81.835,23.51],[81.737,23.564],[81.613,23.509],[81.621,23.659],[81.695,23.72],[81.606,23.852],[81.71,23.861],[81.819,23.808],[82.008,23.861],[82.053,23.819],[82.207,23.83],[82.552,23.793],[82.662,23.905],[82.816,23.962],[82.716,24.079],[82.772,24.291],[82.724,24.555],[82.774,24.64],[82.674,24.698],[82.537,24.65],[82.428,24.703],[82.417,24.596],[82.307,24.626],[82.217,24.795],[82.12,24.79],[81.911,24.881],[81.91,24.98],[81.655,25.072],[81.541,25.182],[81.492,25.072],[81.358,25.164],[81.17,24.955],[80.865,24.932],[80.879,25.067],[80.759,25.138],[80.682,25.05],[80.587,25.084],[80.485,24.989],[80.357,25.136],[80.41,25.217],[80.32,25.278],[80.317,25.387],[80.197,25.402],[80.135,25.336],[80.029,25.339],[80.005,25.266],[79.853,25.232],[79.835,25.096],[79.558,25.165],[79.497,25.078],[79.397,25.116],[79.141,25.106],[79.034,25.23],[78.875,25.185],[78.801,25.288],[78.937,25.423],[78.949,25.526],[78.611,25.412],[78.528,25.283],[78.649,25.057],[78.632,24.957],[78.771,24.857],[78.759,24.598],[78.889,24.635],[78.952,24.549],[78.975,24.353],[78.865,24.209],[78.791,24.181],[78.585,24.353],[78.506,24.39],[78.369,24.374],[78.273,24.443],[78.274,24.665],[78.177,24.88],[78.334,24.995],[78.392,25.19],[78.338,25.332],[78.342,25.426],[78.429,25.474],[78.488,25.575],[78.656,25.56],[78.802,25.612],[78.768,25.715],[78.824,25.826],[79.011,26.076],[79.009,26.149],[79.125,26.348],[79.007,26.545],[78.993,26.68],[78.874,26.699],[78.724,26.794],[78.574,26.752],[78.394,26.822],[78.218,26.83],[78.104,26.784],[78.096,26.681],[78,26.697],[77.821,26.549],[77.679,26.504],[77.53,26.409],[77.435,26.401],[77.274,26.271],[77.12,26.226],[76.901,26.093],[76.801,25.939],[76.647,25.901],[76.535,25.793],[76.525,25.525],[76.607,25.384],[76.778,25.311],[76.964,25.292],[77.081,25.335],[77.159,25.308],[77.311,25.431],[77.412,25.221],[77.392,25.117],[77.308,25.079],[77.175,25.109],[77.082,25.053],[76.989,25.073],[76.874,25.006],[76.954,24.868],[76.851,24.765],[77.024,24.71],[77.055,24.522],[76.965,24.456],[76.856,24.465],[76.841,24.356],[76.948,24.194],[76.904,24.127],[76.795,24.121],[76.62,24.258],[76.527,24.159],[76.467,24.225],[76.356,24.245],[76.126,24.201],[76.137,24.091],[75.963,24.021],[75.978,23.929],[75.651,23.796],[75.458,23.917],[75.516,24.045],[75.702,23.965],[75.782,24.058],[75.746,24.136],[75.815,24.297],[75.738,24.399],[75.906,24.442],[75.928,24.534],[75.855,24.61],[75.842,24.726],[75.745,24.756],[75.616,24.684],[75.454,24.689],[75.23,24.731],[75.303,24.812],[75.34,24.959],[75.313,25.042],[75.157,25.025],[75.121,24.885],[75.045,24.856],[74.828,24.896],[74.86,24.81],[75.014,24.79],[75.001,24.705],[74.749,24.594],[74.758,24.486],[74.858,24.448],[74.755,24.276],[74.854,24.267],[74.993,24.026],[74.905,23.865],[74.941,23.732],[74.851,23.554],[74.612,23.459],[74.532,23.32],[74.668,23.199],[74.534,23.099],[74.389,23.11],[74.32,23.06],[74.379,22.908],[74.463,22.813],[74.381,22.641],[74.275,22.646],[74.21,22.565],[74.081,22.507],[74.101,22.432],[74.234,22.437],[74.195,22.341],[74.068,22.359],[74.119,22.211],[74.142,21.952]],[[79.4,25.031],[79.362,25.049],[79.392,25.083],[79.424,25.057],[79.4,25.031]],[[79.371,25.181],[79.369,25.17],[79.357,25.174],[79.363,25.187],[79.371,25.181]]]]}},{"type":"Feature","properties":{"ST_NM":"Karnataka"},"geometry":{"type":"MultiPolygon","coordinates":[[[[77.301,18.477],[77.275,18.475],[77.268,18.453],[77.294,18.458],[77.301,18.477]]],[[[74.309,15.799],[74.29,15.831],[74.265,15.797],[74.309,15.799]]],[[[77.514,15.926],[77.492,16.254],[77.523,16.375],[77.416,16.367],[77.289,16.407],[77.458,16.611],[77.421,16.667],[77.476,16.8],[77.457,16.913],[77.503,17.011],[77.467,17.107],[77.38,17.141],[77.384,17.223],[77.46,17.348],[77.525,17.365],[77.661,17.524],[77.444,17.584],[77.461,17.701],[77.543,17.728],[77.53,17.829],[77.657,17.972],[77.61,18.02],[77.601,18.154],[77.554,18.293],[77.411,18.301],[77.404,18.399],[77.243,18.41],[77.209,18.279],[77.06,18.154],[76.956,18.186],[76.954,18.039],[76.694,17.707],[76.525,17.76],[76.417,17.606],[76.332,17.596],[76.383,17.314],[76.229,17.365],[76.121,17.368],[75.931,17.326],[75.634,17.479],[75.604,17.305],[75.673,17.115],[75.667,16.985],[75.491,16.947],[75.466,16.987],[75.282,16.955],[75.227,16.843],[75,16.947],[74.908,16.857],[74.912,16.787],[74.774,16.75],[74.569,16.554],[74.49,16.629],[74.27,16.522],[74.332,16.454],[74.342,16.293],[74.503,16.225],[74.429,15.953],[74.364,15.878],[74.345,15.766],[74.161,15.751],[74.119,15.652],[74.249,15.656],[74.25,15.492],[74.336,15.295],[74.275,15.104],[74.296,15.042],[74.235,14.949],[74.088,14.896],[74.108,14.786],[74.263,14.722],[74.279,14.619],[74.397,14.408],[74.516,13.989],[74.614,13.835],[74.672,13.6],[74.714,13.288],[74.807,12.895],[74.863,12.758],[75.005,12.79],[75.048,12.664],[75.202,12.63],[75.381,12.392],[75.58,12.156],[75.721,12.068],[75.8,12.08],[75.882,11.947],[75.982,11.931],[76.114,11.977],[76.191,11.87],[76.431,11.666],[76.512,11.705],[76.562,11.62],[76.86,11.61],[76.839,11.657],[76.909,11.791],[77.014,11.811],[77.113,11.771],[77.252,11.811],[77.442,11.781],[77.501,11.939],[77.675,11.962],[77.778,12.119],[77.737,12.177],[77.476,12.211],[77.614,12.363],[77.635,12.486],[77.608,12.63],[77.76,12.696],[77.835,12.868],[77.992,12.82],[78.075,12.84],[78.232,12.763],[78.252,12.857],[78.356,12.938],[78.469,12.974],[78.578,13.282],[78.365,13.365],[78.39,13.591],[78.259,13.584],[78.155,13.659],[78.115,13.862],[77.92,13.905],[77.536,13.715],[77.432,13.834],[77.247,13.901],[77.168,13.822],[77.041,13.776],[76.975,13.817],[77.042,13.932],[76.948,14.118],[77.141,14.005],[77.39,14.014],[77.396,14.172],[77.517,14.179],[77.506,14.268],[77.401,14.336],[77.286,14.283],[77.158,14.344],[77.055,14.246],[76.943,14.246],[76.869,14.48],[76.765,14.602],[76.838,14.79],[76.869,14.969],[76.768,14.975],[76.801,15.096],[76.881,15.034],[77.114,15.034],[77.169,15.174],[77.153,15.291],[77.042,15.364],[77.031,15.634],[77.081,15.914],[77.253,15.962],[77.514,15.926]]]]}},{"type":"Feature","properties":{"ST_NM":"Puducherry"},"geometry":{"type":"MultiPolygon","coordinates":[[[[79.676,11.814],[79.676,11.802],[79.691,11.803],[79.688,11.812],[79.676,11.814]]],[[[79.808,11.832],[79.764,11.831],[79.739,11.843],[79.723,11.797],[79.795,11.785],[79.808,11.832]]],[[[79.67,11.815],[79.649,11.844],[79.646,11.816],[79.67,11.815]]],[[[79.637,11.887],[79.602,11.857],[79.65,11.849],[79.637,11.887]]],[[[79.689,11.972],[79.663,11.968],[79.661,11.957],[79.685,11.953],[79.689,11.972]]],[[[79.642,11.905],[79.671,11.933],[79.643,11.946],[79.638,11.977],[79.654,12.024],[79.628,12.03],[79.62,12],[79.642,11.905]]],[[[79.858,12.005],[79.875,12.043],[79.85,12.05],[79.858,12.005]]],[[[82.206,16.747],[82.225,16.721],[82.263,16.701],[82.312,16.734],[82.23,16.729],[82.206,16.747]]],[[[75.537,11.693],[75.544,11.703],[75.529,11.705],[75.537,11.693]]],[[[79.852,10.988],[79.754,11.004],[79.744,10.913],[79.849,10.827],[79.852,10.988]]],[[[79.841,11.955],[79.763,11.943],[79.693,11.884],[79.695,11.885],[79.746,11.861],[79.773,11.837],[79.776,11.838],[79.808,11.834],[79.841,11.955]],[[79.79,11.876],[79.771,11.894],[79.781,11.902],[79.796,11.89],[79.79,11.876]]],[[[75.553,11.718],[75.545,11.734],[75.53,11.732],[75.541,11.714],[75.553,11.718]]]]}},{"type":"Feature","properties":{"ST_NM":"Uttar Pradesh"},"geometry":{"type":"MultiPolygon","coordinates":[[[[79.4,25.031],[79.424,25.057],[79.392,25.083],[79.362,25.049],[79.4,25.031]]],[[[79.371,25.181],[79.363,25.187],[79.357,25.174],[79.369,25.17],[79.371,25.181]]],[[[77.588,30.38],[77.583,30.306],[77.413,30.108],[77.283,30.044],[77.192,29.897],[77.096,29.529],[77.165,29.312],[77.135,29.096],[77.225,29.001],[77.197,28.862],[77.205,28.797],[77.338,28.686],[77.305,28.556],[77.348,28.503],[77.446,28.426],[77.548,28.185],[77.482,28.098],[77.528,27.926],[77.285,27.801],[77.351,27.647],[77.349,27.519],[77.44,27.394],[77.583,27.321],[77.663,27.17],[77.553,27.11],[77.567,27.043],[77.7,26.973],[77.49,26.898],[77.528,26.816],[77.724,26.876],[77.773,26.932],[77.88,26.9],[78.051,26.91],[78.148,26.951],[78.241,26.928],[78.218,26.83],[78.394,26.822],[78.574,26.752],[78.724,26.794],[78.874,26.699],[78.993,26.68],[79.007,26.545],[79.125,26.348],[79.009,26.149],[79.011,26.076],[78.824,25.826],[78.768,25.715],[78.802,25.612],[78.656,25.56],[78.488,25.575],[78.429,25.474],[78.342,25.426],[78.338,25.332],[78.392,25.19],[78.334,24.995],[78.177,24.88],[78.274,24.665],[78.273,24.443],[78.369,24.374],[78.506,24.39],[78.585,24.353],[78.791,24.181],[78.865,24.209],[78.975,24.353],[78.952,24.549],[78.889,24.635],[78.759,24.598],[78.771,24.857],[78.632,24.957],[78.649,25.057],[78.528,25.283],[78.611,25.412],[78.949,25.526],[78.937,25.423],[78.801,25.288],[78.875,25.185],[79.034,25.23],[79.141,25.106],[79.397,25.116],[79.497,25.078],[79.558,25.165],[79.835,25.096],[79.853,25.232],[80.005,25.266],[80.029,25.339],[80.135,25.336],[80.197,25.402],[80.317,25.387],[80.32,25.278],[80.41,25.217],[80.357,25.136],[80.485,24.989],[80.587,25.084],[80.682,25.05],[80.759,25.138],[80.879,25.067],[80.865,24.932],[81.17,24.955],[81.358,25.164],[81.492,25.072],[81.541,25.182],[81.655,25.072],[81.91,24.98],[81.911,24.881],[82.12,24.79],[82.217,24.795],[82.307,24.626],[82.417,24.596],[82.428,24.703],[82.537,24.65],[82.674,24.698],[82.774,24.64],[82.724,24.555],[82.772,24.291],[82.716,24.079],[82.816,23.962],[82.961,23.872],[83.135,23.889],[83.331,24.101],[83.442,24.346],[83.401,24.5],[83.506,24.526],[83.542,24.614],[83.488,24.736],[83.395,24.783],[83.328,25.014],[83.358,25.197],[83.418,25.247],[83.791,25.397],[83.929,25.56],[84.085,25.636],[84.225,25.662],[84.334,25.735],[84.525,25.676],[84.629,25.791],[84.537,25.876],[84.3,25.946],[84.058,26.097],[84.011,26.188],[84.166,26.259],[84.18,26.372],[84.071,26.388],[83.916,26.504],[84.057,26.541],[84.161,26.636],[84.281,26.597],[84.335,26.682],[84.238,26.867],[84.062,26.889],[84.034,27.042],[83.951,27.117],[83.995,27.179],[83.867,27.345],[83.609,27.47],[83.402,27.478],[83.406,27.399],[83.312,27.329],[83.184,27.453],[83.053,27.448],[82.926,27.5],[82.746,27.5],[82.744,27.632],[82.691,27.716],[82.459,27.676],[82.075,27.924],[81.971,27.929],[81.891,27.858],[81.7,27.989],[81.478,28.084],[81.429,28.171],[81.32,28.202],[81.215,28.358],[81.11,28.376],[81.016,28.447],[80.91,28.457],[80.772,28.563],[80.703,28.575],[80.558,28.691],[80.462,28.624],[80.372,28.633],[80.248,28.758],[80.07,28.829],[80,28.711],[79.852,28.803],[79.786,28.886],[79.678,28.842],[79.291,28.959],[79.085,29.146],[78.917,29.157],[78.876,29.243],[78.74,29.307],[78.869,29.38],[78.913,29.45],[78.706,29.503],[78.524,29.645],[78.5,29.736],[78.344,29.79],[77.991,29.549],[77.958,29.682],[77.77,29.711],[77.716,29.862],[77.771,30.041],[77.909,30.181],[77.93,30.251],[77.576,30.4],[77.588,30.38]]]]}},{"type":"Feature","properties":{"ST_NM":"West Bengal"},"geometry":{"type":"MultiPolygon","coordinates":[[[[88.498,21.6],[88.481,21.555],[88.531,21.542],[88.53,21.583],[88.498,21.6]]],[[[88.178,21.601],[88.17,21.6],[88.174,21.567],[88.186,21.577],[88.178,21.601]]],[[[88.835,21.607],[88.854,21.55],[88.893,21.579],[88.835,21.607]]],[[[88.729,21.637],[88.708,21.59],[88.741,21.573],[88.747,21.589],[88.757,21.6],[88.736,21.61],[88.729,21.637]]],[[[88.537,21.639],[88.51,21.601],[88.537,21.588],[88.55,21.564],[88.584,21.611],[88.537,21.639]]],[[[88.774,21.648],[88.736,21.645],[88.738,21.61],[88.753,21.605],[88.758,21.601],[88.757,21.596],[88.75,21.592],[88.749,21.579],[88.798,21.592],[88.774,21.648]]],[[[88.966,21.642],[88.956,21.617],[88.988,21.613],[88.988,21.645],[88.966,21.642]]],[[[88.577,21.692],[88.558,21.635],[88.599,21.641],[88.586,21.658],[88.577,21.692]]],[[[88.592,21.694],[88.581,21.684],[88.589,21.657],[88.606,21.68],[88.592,21.694]]],[[[88.984,21.706],[88.972,21.698],[88.952,21.701],[88.965,21.644],[88.994,21.649],[88.988,21.653],[88.987,21.665],[88.993,21.671],[88.989,21.702],[88.984,21.706]]],[[[88.807,21.707],[88.749,21.673],[88.797,21.656],[88.807,21.707]]],[[[88.311,21.706],[88.317,21.665],[88.306,21.629],[88.337,21.621],[88.351,21.678],[88.311,21.706]]],[[[88.454,21.709],[88.42,21.69],[88.421,21.651],[88.451,21.621],[88.471,21.674],[88.454,21.709]]],[[[88.697,21.713],[88.687,21.684],[88.725,21.638],[88.741,21.654],[88.703,21.687],[88.697,21.713]]],[[[88.205,21.721],[88.181,21.689],[88.205,21.61],[88.232,21.641],[88.2,21.675],[88.205,21.721]]],[[[89.059,21.722],[89.026,21.644],[89.093,21.637],[89.059,21.722]]],[[[88.978,21.727],[88.993,21.7],[88.996,21.673],[88.993,21.651],[89.008,21.652],[89.018,21.661],[89.02,21.699],[88.978,21.727]]],[[[88.546,21.736],[88.517,21.712],[88.541,21.64],[88.568,21.665],[88.566,21.693],[88.586,21.699],[88.546,21.736]]],[[[88.883,21.745],[88.873,21.694],[88.922,21.633],[88.942,21.69],[88.883,21.745]]],[[[88.412,21.731],[88.38,21.681],[88.387,21.613],[88.432,21.628],[88.411,21.66],[88.413,21.691],[88.429,21.703],[88.412,21.731]]],[[[88.221,21.762],[88.233,21.669],[88.235,21.635],[88.217,21.62],[88.292,21.563],[88.293,21.637],[88.312,21.672],[88.272,21.728],[88.221,21.762]]],[[[88.927,21.762],[88.923,21.721],[88.95,21.702],[88.972,21.699],[88.965,21.75],[88.927,21.762]]],[[[88.365,21.764],[88.343,21.754],[88.338,21.71],[88.365,21.722],[88.36,21.734],[88.36,21.745],[88.365,21.764]]],[[[89.005,21.765],[89.021,21.717],[89.056,21.73],[89.005,21.765]]],[[[88.832,21.766],[88.809,21.64],[88.86,21.643],[88.832,21.766]]],[[[88.385,21.764],[88.373,21.764],[88.361,21.747],[88.361,21.735],[88.381,21.737],[88.385,21.764]]],[[[87.945,21.745],[87.96,21.756],[87.952,21.768],[87.935,21.747],[87.945,21.745]]],[[[88.582,21.778],[88.569,21.769],[88.592,21.719],[88.616,21.741],[88.587,21.752],[88.584,21.761],[88.582,21.778]]],[[[88.302,21.725],[88.299,21.767],[88.285,21.753],[88.278,21.728],[88.302,21.725]]],[[[89,21.785],[88.967,21.772],[88.977,21.729],[89.005,21.716],[89,21.785]]],[[[88.61,21.79],[88.593,21.785],[88.589,21.78],[88.586,21.757],[88.621,21.74],[88.61,21.79]]],[[[88.274,21.791],[88.274,21.776],[88.288,21.781],[88.274,21.791]]],[[[88.459,21.789],[88.423,21.766],[88.433,21.704],[88.467,21.737],[88.459,21.789]]],[[[88.716,21.807],[88.695,21.744],[88.711,21.69],[88.76,21.685],[88.753,21.732],[88.759,21.759],[88.728,21.778],[88.716,21.807]]],[[[88.545,21.81],[88.505,21.773],[88.525,21.718],[88.562,21.76],[88.545,21.81]]],[[[88.422,21.811],[88.383,21.78],[88.401,21.753],[88.44,21.789],[88.422,21.811]]],[[[89,21.812],[88.99,21.79],[89.01,21.784],[89.017,21.812],[89,21.812]]],[[[88.751,21.795],[88.728,21.792],[88.728,21.78],[88.746,21.772],[88.751,21.795]]],[[[88.828,21.804],[88.786,21.769],[88.812,21.751],[88.83,21.767],[88.828,21.804]]],[[[88.787,21.745],[88.785,21.773],[88.765,21.784],[88.757,21.733],[88.787,21.745]]],[[[88.916,21.826],[88.903,21.821],[88.895,21.813],[88.886,21.81],[88.906,21.752],[88.923,21.788],[88.918,21.792],[88.928,21.8],[88.927,21.804],[88.937,21.818],[88.935,21.823],[88.92,21.823],[88.916,21.826]]],[[[88.485,21.835],[88.456,21.819],[88.486,21.799],[88.485,21.835]]],[[[88.941,21.847],[88.933,21.837],[88.925,21.835],[88.927,21.823],[88.937,21.823],[88.939,21.817],[88.935,21.814],[88.929,21.8],[88.92,21.792],[88.924,21.788],[88.92,21.775],[88.954,21.808],[88.954,21.826],[88.941,21.847]]],[[[88.592,21.85],[88.576,21.817],[88.613,21.798],[88.592,21.85]]],[[[88.331,21.861],[88.308,21.83],[88.266,21.814],[88.26,21.807],[88.264,21.794],[88.282,21.791],[88.304,21.761],[88.361,21.796],[88.331,21.861]]],[[[88.856,21.865],[88.835,21.782],[88.891,21.763],[88.856,21.865]]],[[[88.137,21.875],[88.044,21.718],[88.171,21.745],[88.137,21.875]]],[[[88.789,21.879],[88.777,21.865],[88.766,21.831],[88.786,21.826],[88.794,21.813],[88.821,21.825],[88.829,21.863],[88.804,21.867],[88.789,21.879]]],[[[88.979,21.893],[88.98,21.869],[88.951,21.842],[89.02,21.818],[89.031,21.863],[88.979,21.893]]],[[[88.622,21.898],[88.595,21.856],[88.639,21.785],[88.653,21.869],[88.622,21.898]]],[[[88.817,21.901],[88.808,21.868],[88.831,21.866],[88.841,21.887],[88.817,21.901]]],[[[88.562,21.897],[88.531,21.849],[88.563,21.831],[88.576,21.884],[88.562,21.897]]],[[[88.446,21.905],[88.436,21.902],[88.42,21.903],[88.417,21.887],[88.4,21.873],[88.393,21.833],[88.443,21.802],[88.454,21.822],[88.491,21.85],[88.484,21.885],[88.461,21.894],[88.446,21.905]]],[[[88.718,21.907],[88.696,21.842],[88.726,21.794],[88.777,21.822],[88.766,21.826],[88.765,21.838],[88.775,21.865],[88.718,21.907]]],[[[88.505,21.913],[88.489,21.91],[88.477,21.898],[88.49,21.889],[88.505,21.913]]],[[[88.64,21.922],[88.623,21.901],[88.653,21.881],[88.667,21.913],[88.64,21.922]]],[[[88.135,21.927],[88.117,21.914],[88.129,21.899],[88.145,21.915],[88.135,21.927]]],[[[88.837,21.918],[88.861,21.856],[88.878,21.854],[88.882,21.83],[88.89,21.812],[88.903,21.822],[88.914,21.828],[88.923,21.836],[88.931,21.838],[88.938,21.849],[88.939,21.854],[88.946,21.842],[88.948,21.841],[88.955,21.854],[88.977,21.868],[88.972,21.899],[88.915,21.928],[88.887,21.914],[88.837,21.918]]],[[[88.724,21.932],[88.729,21.9],[88.797,21.877],[88.799,21.92],[88.754,21.927],[88.732,21.92],[88.724,21.932]]],[[[88.745,21.98],[88.725,21.978],[88.722,21.943],[88.733,21.925],[88.762,21.931],[88.799,21.926],[88.749,21.959],[88.745,21.98]]],[[[88.66,22.019],[88.632,21.953],[88.678,21.943],[88.716,22.001],[88.66,22.019]]],[[[88.141,22.026],[88.07,21.991],[88.081,21.932],[88.141,22.026]]],[[[88.813,22.019],[88.761,22.015],[88.75,21.982],[88.752,21.959],[88.776,21.943],[88.825,21.94],[88.857,21.919],[88.907,21.93],[88.9,22.013],[88.813,22.019]]],[[[88.764,22.052],[88.762,22.021],[88.778,22.02],[88.775,22.05],[88.764,22.052]]],[[[88.903,22.045],[88.854,22.043],[88.877,22.015],[88.903,22.045]]],[[[89.016,22.051],[88.974,21.995],[89.063,21.935],[89.078,21.986],[89.016,22.051]]],[[[88.812,22.061],[88.78,22.038],[88.832,22.027],[88.812,22.061]]],[[[88.871,22.079],[88.819,22.063],[88.85,22.043],[88.861,22.046],[88.881,22.046],[88.87,22.063],[88.871,22.079]]],[[[88.904,22.084],[88.871,22.087],[88.872,22.063],[88.891,22.06],[88.904,22.084]]],[[[88.803,22.085],[88.779,22.103],[88.748,22.059],[88.781,22.049],[88.803,22.085]]],[[[88.818,22.123],[88.806,22.085],[88.866,22.081],[88.847,22.117],[88.818,22.123]]],[[[88.865,22.167],[88.872,22.088],[88.923,22.109],[88.865,22.167]]],[[[89.002,22.199],[88.98,22.079],[89.031,22.094],[89.002,22.199]]],[[[88.845,22.189],[88.747,22.133],[88.798,22.125],[88.85,22.143],[88.845,22.189]]],[[[88.932,22.225],[88.924,22.179],[88.961,22.194],[88.932,22.225]]],[[[88.862,22.399],[88.861,22.371],[88.893,22.346],[88.898,22.364],[88.862,22.399]]],[[[88.781,22.501],[88.801,22.461],[88.81,22.481],[88.781,22.501]]],[[[88.898,22.549],[88.867,22.53],[88.861,22.413],[88.905,22.412],[88.898,22.549]]],[[[89.602,25.961],[89.585,25.948],[89.584,25.935],[89.613,25.943],[89.602,25.961]]],[[[88.799,26.207],[88.764,26.174],[88.771,26.131],[88.794,26.144],[88.788,26.174],[88.799,26.207]]],[[[88.69,26.247],[88.688,26.213],[88.711,26.223],[88.69,26.247]]],[[[88.662,26.268],[88.652,26.275],[88.639,26.263],[88.648,26.253],[88.662,26.268]]],[[[89.815,26.325],[89.817,26.346],[89.794,26.34],[89.815,26.325]]],[[[88.969,21.921],[88.958,22.06],[88.902,22.064],[88.931,21.942],[88.969,21.921]]],[[[88.686,22.199],[88.689,22.09],[88.789,22.169],[88.686,22.199]]],[[[88.952,22.332],[88.968,22.215],[89.069,22.19],[89.009,22.315],[88.952,22.332]]],[[[88.904,22.526],[88.926,22.406],[88.997,22.429],[88.904,22.526]]],[[[88.759,27.148],[88.599,27.194],[88.439,27.081],[88.312,27.128],[88.16,27.111],[88.017,27.216],[87.993,27.108],[88.135,26.981],[88.187,26.718],[88.112,26.539],[88.25,26.449],[88.28,26.377],[88.231,26.289],[88.044,26.178],[87.966,26.084],[87.849,26.044],[87.829,25.872],[87.907,25.78],[88.057,25.686],[88.033,25.554],[87.792,25.449],[87.793,25.221],[87.778,25.1],[87.967,24.937],[87.845,24.739],[87.906,24.723],[87.892,24.564],[87.801,24.564],[87.803,24.384],[87.686,24.248],[87.695,24.151],[87.585,24.163],[87.502,24.117],[87.444,23.98],[87.338,24.033],[87.298,23.892],[87.154,23.796],[86.901,23.882],[86.798,23.689],[86.717,23.699],[86.534,23.631],[86.451,23.633],[86.364,23.545],[86.358,23.466],[86.231,23.438],[86.145,23.572],[86.047,23.492],[85.866,23.453],[85.841,23.194],[85.921,23.132],[86.043,23.146],[86.218,22.995],[86.399,22.977],[86.438,22.919],[86.422,22.78],[86.642,22.658],[86.657,22.579],[86.761,22.578],[86.849,22.4],[86.825,22.265],[86.728,22.219],[86.721,22.148],[86.962,22.088],[87.098,21.913],[87.239,21.959],[87.285,21.804],[87.448,21.766],[87.49,21.603],[87.667,21.632],[87.837,21.716],[87.961,21.826],[88.053,22.013],[88.167,22.074],[88.154,21.96],[88.217,21.764],[88.282,21.755],[88.258,21.801],[88.26,21.81],[88.269,21.818],[88.306,21.831],[88.311,21.855],[88.416,21.901],[88.424,21.908],[88.432,21.903],[88.442,21.911],[88.462,21.918],[88.458,21.898],[88.474,21.895],[88.528,21.853],[88.548,21.882],[88.545,21.906],[88.578,21.89],[88.602,21.907],[88.619,22.105],[88.673,22.205],[88.789,22.178],[88.867,22.196],[88.902,22.177],[88.937,22.297],[88.861,22.366],[88.848,22.431],[88.869,22.546],[88.938,22.571],[88.971,22.845],[88.872,22.972],[88.873,23.099],[88.917,23.232],[88.789,23.22],[88.7,23.295],[88.766,23.37],[88.746,23.483],[88.647,23.611],[88.565,23.648],[88.58,23.862],[88.737,23.916],[88.727,24.298],[88.343,24.378],[88.195,24.465],[88.014,24.67],[88.162,24.85],[88.398,24.944],[88.452,25.035],[88.443,25.201],[88.568,25.175],[88.687,25.21],[88.92,25.166],[89.005,25.3],[88.847,25.366],[88.836,25.481],[88.648,25.483],[88.45,25.602],[88.301,25.759],[88.116,25.796],[88.094,25.894],[88.18,26.022],[88.163,26.105],[88.364,26.293],[88.523,26.383],[88.487,26.46],[88.359,26.51],[88.395,26.616],[88.573,26.458],[88.687,26.409],[88.706,26.337],[88.925,26.286],[89.004,26.295],[88.986,26.42],[89.091,26.4],[89.161,26.14],[89.358,26.011],[89.55,25.999],[89.62,26.063],[89.599,26.162],[89.723,26.166],[89.722,26.259],[89.787,26.353],[89.862,26.384],[89.883,26.584],[89.862,26.704],[89.648,26.747],[89.534,26.819],[89.326,26.853],[89.135,26.809],[89.092,26.897],[88.991,26.921],[88.885,27.038],[88.877,27.109],[88.759,27.148]]]]}},{"type":"Feature","properties":{"ST_NM":"Odisha"},"geometry":{"type":"MultiPolygon","coordinates":[[[[86.389,19.964],[86.394,19.977],[86.41,19.987],[86.408,19.995],[86.384,19.979],[86.389,19.964]]],[[[86.807,20.369],[86.811,20.374],[86.81,20.396],[86.801,20.39],[86.807,20.369]]],[[[86.795,20.396],[86.812,20.454],[86.791,20.425],[86.795,20.396]]],[[[86.89,20.787],[86.895,20.776],[86.93,20.774],[86.948,20.775],[86.946,20.783],[86.911,20.783],[86.89,20.787]]],[[[87.49,21.603],[87.448,21.766],[87.285,21.804],[87.239,21.959],[87.098,21.913],[86.962,22.088],[86.721,22.148],[86.728,22.219],[86.505,22.345],[86.43,22.31],[86.293,22.429],[86.107,22.494],[85.959,22.459],[86.027,22.385],[85.976,22.247],[86.032,22.189],[85.9,21.982],[85.785,22.04],[85.597,22.078],[85.369,22.158],[85.217,22.047],[85.032,22.157],[85.112,22.294],[85.058,22.482],[84.887,22.42],[84.509,22.418],[84.433,22.355],[84.296,22.34],[84.201,22.374],[84.144,22.469],[84.01,22.523],[84.008,22.372],[83.868,22.346],[83.753,22.243],[83.653,22.227],[83.564,22.102],[83.542,21.966],[83.608,21.913],[83.498,21.811],[83.448,21.652],[83.388,21.616],[83.349,21.488],[83.401,21.403],[83.277,21.378],[83.2,21.143],[83.127,21.105],[82.987,21.161],[82.643,21.152],[82.63,21.04],[82.56,20.945],[82.341,20.844],[82.417,20.407],[82.403,20.054],[82.59,19.995],[82.719,19.988],[82.706,19.832],[82.483,19.906],[82.347,19.835],[82.269,19.976],[82.192,19.986],[81.941,20.103],[81.868,20.027],[81.866,19.904],[82.06,19.796],[82.054,19.544],[82.188,19.338],[82.16,19.271],[82.248,18.917],[82.179,18.898],[82.154,18.78],[81.963,18.687],[81.955,18.566],[81.77,18.418],[81.536,18.266],[81.485,17.981],[81.404,17.895],[81.394,17.814],[81.62,17.823],[81.767,17.901],[81.945,17.992],[82.033,18.066],[82.345,18.056],[82.341,18.224],[82.37,18.418],[82.49,18.523],[82.609,18.374],[82.598,18.265],[82.775,18.34],[82.807,18.448],[82.985,18.364],[83.075,18.401],[83.034,18.573],[83.092,18.664],[83.396,18.879],[83.343,19.015],[83.482,19.008],[83.612,19.101],[83.734,18.984],[83.796,19.016],[83.878,18.827],[84.099,18.754],[84.34,18.801],[84.423,18.947],[84.517,19.046],[84.604,19.029],[84.668,19.131],[84.769,19.08],[84.891,19.244],[85.092,19.38],[85.351,19.584],[85.696,19.751],[86.045,19.841],[86.367,19.948],[86.382,20.001],[86.4,19.999],[86.429,20.053],[86.527,20.168],[86.784,20.326],[86.733,20.411],[86.787,20.529],[87.015,20.683],[86.979,20.86],[86.875,21.044],[86.843,21.157],[86.947,21.352],[87.15,21.508],[87.395,21.542],[87.49,21.603]]]]}},{"type":"Feature","properties":{"ST_NM":"Chandigarh"},"geometry":{"type":"MultiPolygon","coordinates":[[[[76.841,30.76],[76.773,30.795],[76.728,30.71],[76.833,30.682],[76.841,30.76]]]]}},{"type":"Feature","properties":{"ST_NM":"Haryana"},"geometry":{"type":"MultiPolygon","coordinates":[[[[76.833,30.682],[76.926,30.596],[76.877,30.405],[76.751,30.356],[76.603,30.25],[76.64,30.151],[76.545,30.079],[76.438,30.144],[76.263,30.115],[76.21,30.034],[76.194,29.89],[76.24,29.851],[76.052,29.745],[75.874,29.749],[75.831,29.812],[75.677,29.77],[75.454,29.784],[75.231,29.604],[75.241,29.75],[75,29.855],[74.934,29.94],[74.811,29.992],[74.595,29.914],[74.529,29.943],[74.563,29.865],[74.481,29.744],[74.615,29.752],[74.579,29.405],[74.785,29.359],[74.936,29.363],[74.962,29.28],[75.087,29.23],[75.389,29.261],[75.37,29.14],[75.444,29.014],[75.52,29.008],[75.497,28.856],[75.564,28.611],[75.637,28.542],[75.931,28.365],[76.061,28.22],[75.963,27.984],[75.983,27.86],[76.214,27.843],[76.162,27.988],[76.368,28.139],[76.481,28.145],[76.547,28.034],[76.8,28.152],[76.842,28.22],[76.971,28.139],[76.927,27.992],[76.935,27.829],[76.897,27.714],[76.979,27.652],[77.047,27.815],[77.285,27.801],[77.528,27.926],[77.482,28.098],[77.548,28.185],[77.446,28.426],[77.348,28.503],[77.237,28.464],[77.025,28.528],[76.889,28.519],[76.843,28.577],[76.956,28.678],[76.952,28.816],[77.06,28.868],[77.197,28.862],[77.225,29.001],[77.135,29.096],[77.165,29.312],[77.096,29.529],[77.192,29.897],[77.283,30.044],[77.413,30.108],[77.583,30.306],[77.588,30.38],[77.448,30.399],[77.359,30.457],[77.212,30.48],[77.167,30.684],[77.026,30.738],[76.916,30.893],[76.783,30.903],[76.841,30.76],[76.833,30.682]]]]}},{"type":"Feature","properties":{"ST_NM":"Himachal Pradesh"},"geometry":{"type":"MultiPolygon","coordinates":[[[[75.889,32.576],[75.886,32.559],[75.867,32.521],[75.871,32.499],[75.942,32.411],[75.752,32.273],[75.638,32.235],[75.626,32.099],[75.909,31.949],[75.936,31.816],[76.22,31.303],[76.344,31.343],[76.442,31.322],[76.649,31.21],[76.624,31.001],[76.783,30.903],[76.916,30.893],[77.026,30.738],[77.167,30.684],[77.212,30.48],[77.359,30.457],[77.448,30.399],[77.588,30.38],[77.576,30.4],[77.813,30.506],[77.789,30.636],[77.702,30.764],[77.798,30.867],[77.768,30.972],[77.917,31.154],[78.248,31.23],[78.384,31.283],[78.485,31.199],[78.616,31.231],[78.81,31.2],[78.895,31.099],[79.012,31.112],[78.922,31.254],[78.845,31.325],[78.811,31.448],[78.737,31.536],[78.843,31.623],[78.75,31.687],[78.708,31.789],[78.754,32],[78.591,32.154],[78.61,32.215],[78.481,32.274],[78.536,32.415],[78.4,32.526],[78.407,32.62],[78.314,32.709],[78.111,32.659],[77.994,32.589],[77.936,32.754],[77.779,32.862],[77.731,32.969],[77.599,32.937],[77.339,32.82],[77.175,32.911],[77.154,32.979],[76.935,33.032],[76.816,33.172],[76.795,33.253],[76.748,33.179],[76.659,33.164],[76.645,33.162],[76.565,33.209],[76.487,33.18],[76.461,33.18],[76.46,33.18],[76.447,33.181],[76.402,33.183],[76.292,33.104],[76.255,33.032],[76.146,33.01],[76.145,33.01],[76.141,33.009],[76.111,33.003],[76.099,32.969],[76.034,32.918],[75.951,32.884],[75.884,32.931],[75.825,32.93],[75.825,32.854],[75.929,32.757],[75.926,32.721],[75.915,32.681],[75.889,32.576]]]]}},{"type":"Feature","properties":{"ST_NM":"Arunachal Pradesh"},"geometry":{"type":"MultiPolygon","coordinates":[[[[95.237,26.68],[95.302,26.649],[95.423,26.69],[95.545,26.831],[95.755,26.901],[95.815,27.015],[95.957,27.061],[96.036,27.189],[96.234,27.277],[96.53,27.289],[96.62,27.364],[96.802,27.345],[96.884,27.258],[96.865,27.19],[97.061,27.101],[97.17,27.126],[96.911,27.453],[96.897,27.612],[97.016,27.732],[97.256,27.9],[97.378,27.909],[97.399,28.025],[97.331,28.154],[97.375,28.217],[97.127,28.349],[96.998,28.309],[96.9,28.379],[96.776,28.368],[96.666,28.46],[96.373,28.389],[96.403,28.557],[96.589,28.717],[96.611,28.793],[96.525,28.961],[96.439,29.034],[96.35,29.029],[96.232,28.926],[96.154,29.05],[96.222,29.135],[96.239,29.241],[96.086,29.461],[95.962,29.381],[95.783,29.355],[95.55,29.214],[95.459,29.035],[95.255,29.067],[95.01,29.169],[94.803,29.164],[94.772,29.252],[94.634,29.348],[94.564,29.228],[94.437,29.226],[94.22,29.084],[94.161,28.954],[94,28.841],[93.94,28.676],[93.849,28.706],[93.612,28.655],[93.501,28.683],[93.338,28.633],[93.199,28.317],[93.027,28.299],[92.9,28.204],[92.788,28.183],[92.668,28.062],[92.744,27.988],[92.565,27.82],[92.312,27.778],[92.26,27.861],[92.06,27.758],[91.884,27.721],[91.833,27.807],[91.675,27.856],[91.567,27.584],[91.658,27.482],[92.021,27.457],[92.074,27.276],[92.032,27.078],[92.107,27.007],[92.111,26.893],[92.198,26.89],[92.449,26.959],[92.588,26.96],[92.662,27.037],[92.875,27.006],[93.022,26.915],[93.35,26.961],[93.47,26.936],[93.678,26.968],[93.839,27.075],[93.811,27.149],[94.291,27.591],[94.502,27.574],[94.886,27.738],[95.318,27.867],[95.386,27.837],[95.518,27.877],[95.609,27.953],[95.979,27.963],[95.93,27.885],[95.759,27.725],[95.799,27.602],[95.882,27.547],[95.883,27.437],[95.974,27.43],[95.963,27.31],[95.459,27.203],[95.458,27.129],[95.249,27.024],[95.196,27.037],[95.23,26.88],[95.185,26.859],[95.237,26.68]]]]}},{"type":"Feature","properties":{"ST_NM":"Nagaland"},"geometry":{"type":"MultiPolygon","coordinates":[[[[95.196,27.037],[95.087,26.947],[94.887,26.927],[94.803,26.801],[94.687,26.727],[94.546,26.706],[94.41,26.612],[94.397,26.525],[94.187,26.456],[94.013,26.182],[93.955,26.003],[93.983,25.922],[93.78,25.842],[93.706,25.849],[93.573,25.753],[93.483,25.642],[93.333,25.545],[93.457,25.438],[93.474,25.305],[93.607,25.198],[93.78,25.42],[93.836,25.559],[94.012,25.57],[94.091,25.528],[94.302,25.489],[94.424,25.547],[94.681,25.453],[94.811,25.489],[94.934,25.658],[95.051,25.755],[95.014,25.865],[95.184,26.078],[95.126,26.094],[95.135,26.381],[95.068,26.46],[95.237,26.68],[95.185,26.859],[95.23,26.88],[95.196,27.037]]]]}},{"type":"Feature","properties":{"ST_NM":"Kerala"},"geometry":{"type":"MultiPolygon","coordinates":[[[[75.537,11.693],[75.621,11.476],[75.74,11.357],[75.834,11.113],[75.904,10.796],[76.105,10.364],[76.202,10.049],[76.243,9.969],[76.337,9.422],[76.524,8.996],[76.615,8.856],[76.892,8.5],[77.1,8.291],[77.284,8.546],[77.195,8.743],[77.265,8.84],[77.149,9.02],[77.269,9.152],[77.283,9.3],[77.399,9.47],[77.357,9.587],[77.239,9.582],[77.181,9.657],[77.223,9.731],[77.276,9.973],[77.265,10.263],[77.176,10.355],[76.995,10.228],[76.832,10.303],[76.842,10.593],[76.909,10.779],[76.829,10.87],[76.658,10.937],[76.751,11.118],[76.523,11.269],[76.547,11.359],[76.37,11.455],[76.266,11.48],[76.306,11.571],[76.431,11.666],[76.191,11.87],[76.114,11.977],[75.982,11.931],[75.882,11.947],[75.8,12.08],[75.721,12.068],[75.58,12.156],[75.381,12.392],[75.202,12.63],[75.048,12.664],[75.005,12.79],[74.863,12.758],[74.981,12.488],[75.09,12.289],[75.202,12.018],[75.529,11.705],[75.544,11.703],[75.537,11.693]],[[75.553,11.718],[75.541,11.714],[75.53,11.732],[75.545,11.734],[75.553,11.718]]]]}},{"type":"Feature","properties":{"ST_NM":"Punjab"},"geometry":{"type":"MultiPolygon","coordinates":[[[[76.783,30.903],[76.624,31.001],[76.649,31.21],[76.442,31.322],[76.344,31.343],[76.22,31.303],[75.936,31.816],[75.909,31.949],[75.626,32.099],[75.638,32.235],[75.752,32.273],[75.942,32.411],[75.871,32.499],[75.867,32.521],[75.886,32.559],[75.889,32.576],[75.841,32.509],[75.82,32.487],[75.762,32.476],[75.745,32.445],[75.727,32.418],[75.608,32.382],[75.483,32.318],[75.437,32.326],[75.372,32.337],[75.379,32.239],[75.283,32.119],[75.008,32.044],[74.94,32.067],[74.815,31.963],[74.666,31.912],[74.486,31.722],[74.586,31.521],[74.655,31.463],[74.554,31.367],[74.518,31.137],[74.566,31.054],[74.327,30.849],[74.068,30.521],[73.971,30.489],[73.907,30.351],[73.976,30.196],[73.9,29.971],[74.529,29.943],[74.595,29.914],[74.811,29.992],[74.934,29.94],[75,29.855],[75.241,29.75],[75.231,29.604],[75.454,29.784],[75.677,29.77],[75.831,29.812],[75.874,29.749],[76.052,29.745],[76.24,29.851],[76.194,29.89],[76.21,30.034],[76.263,30.115],[76.438,30.144],[76.545,30.079],[76.64,30.151],[76.603,30.25],[76.751,30.356],[76.877,30.405],[76.926,30.596],[76.833,30.682],[76.728,30.71],[76.773,30.795],[76.841,30.76],[76.783,30.903]]]]}},{"type":"Feature","properties":{"ST_NM":"Assam"},"geometry":{"type":"MultiPolygon","coordinates":[[[[92.296,24.25],[92.422,24.251],[92.529,24.173],[92.691,24.354],[92.765,24.518],[92.831,24.397],[93,24.4],[93.096,24.579],[93.112,24.799],[93.192,24.803],[93.253,24.915],[93.246,25.001],[93.335,25.092],[93.403,25.259],[93.474,25.305],[93.457,25.438],[93.333,25.545],[93.483,25.642],[93.573,25.753],[93.706,25.849],[93.78,25.842],[93.983,25.922],[93.955,26.003],[94.013,26.182],[94.187,26.456],[94.397,26.525],[94.41,26.612],[94.546,26.706],[94.687,26.727],[94.803,26.801],[94.887,26.927],[95.087,26.947],[95.196,27.037],[95.249,27.024],[95.458,27.129],[95.459,27.203],[95.963,27.31],[95.974,27.43],[95.883,27.437],[95.882,27.547],[95.799,27.602],[95.759,27.725],[95.93,27.885],[95.979,27.963],[95.609,27.953],[95.518,27.877],[95.386,27.837],[95.318,27.867],[94.886,27.738],[94.502,27.574],[94.291,27.591],[93.811,27.149],[93.839,27.075],[93.678,26.968],[93.47,26.936],[93.35,26.961],[93.022,26.915],[92.875,27.006],[92.662,27.037],[92.588,26.96],[92.449,26.959],[92.198,26.89],[92.111,26.893],[92.059,26.847],[91.901,26.915],[91.731,26.812],[91.34,26.779],[91.093,26.818],[91.058,26.779],[90.654,26.774],[90.415,26.902],[90.231,26.858],[90.194,26.77],[89.862,26.704],[89.883,26.584],[89.862,26.384],[89.787,26.353],[89.722,26.259],[89.723,26.166],[89.872,25.976],[89.828,25.742],[89.883,25.615],[89.856,25.477],[89.89,25.558],[90.006,25.584],[89.898,25.727],[90.118,25.957],[90.328,25.974],[90.481,26.015],[90.538,25.958],[90.744,25.915],[90.961,25.933],[91.07,25.825],[91.156,25.849],[91.227,25.723],[91.335,25.831],[91.471,25.858],[91.573,26.026],[91.633,25.944],[91.723,25.953],[91.734,26.058],[91.822,26.118],[91.886,26.029],[92.135,26.044],[92.168,25.963],[92.155,25.811],[92.238,25.707],[92.418,25.738],[92.588,25.551],[92.651,25.429],[92.793,25.284],[92.747,25.205],[92.622,25.115],[92.525,25.138],[92.425,25.03],[92.498,24.868],[92.272,24.829],[92.233,24.502],[92.296,24.25]],[[89.815,26.325],[89.794,26.34],[89.817,26.346],[89.815,26.325]]]]}},{"type":"Feature","properties":{"ST_NM":"Tripura"},"geometry":{"type":"MultiPolygon","coordinates":[[[[92.233,24.502],[92.095,24.374],[91.975,24.383],[91.915,24.148],[91.831,24.213],[91.768,24.149],[91.553,24.076],[91.428,24.109],[91.363,23.985],[91.285,23.98],[91.233,23.886],[91.228,23.745],[91.164,23.746],[91.163,23.601],[91.25,23.49],[91.327,23.238],[91.457,23.258],[91.518,23.144],[91.546,22.998],[91.622,22.944],[91.716,22.988],[91.821,23.099],[91.789,23.307],[91.893,23.434],[91.979,23.482],[91.94,23.664],[92.081,23.649],[92.137,23.707],[92.268,23.724],[92.259,23.813],[92.331,23.91],[92.324,24.204],[92.296,24.25],[92.233,24.502]]]]}},{"type":"Feature","properties":{"ST_NM":"Goa"},"geometry":{"type":"MultiPolygon","coordinates":[[[[74.088,14.896],[74.235,14.949],[74.296,15.042],[74.275,15.104],[74.336,15.295],[74.25,15.492],[74.249,15.656],[74.119,15.652],[73.995,15.611],[73.937,15.744],[73.857,15.8],[73.777,15.725],[73.676,15.728],[73.765,15.5],[73.892,15.338],[73.984,15.026],[74.088,14.896]]]]}},{"type":"Feature","properties":{"ST_NM":"Ladakh"},"geometry":{"type":"MultiPolygon","coordinates":[[[[76.795,33.253],[76.816,33.172],[76.935,33.032],[77.154,32.979],[77.175,32.911],[77.339,32.82],[77.599,32.937],[77.731,32.969],[77.779,32.862],[77.936,32.754],[77.994,32.589],[78.111,32.659],[78.314,32.709],[78.407,32.62],[78.4,32.526],[78.536,32.609],[78.619,32.596],[78.75,32.682],[78.827,32.439],[78.96,32.367],[79.115,32.384],[79.34,32.592],[79.448,32.533],[79.627,32.738],[79.464,32.92],[79.383,32.972],[79.377,33.085],[79.455,33.259],[78.993,33.331],[78.933,33.433],[78.919,33.634],[79.021,33.706],[79.02,33.776],[78.906,33.976],[79.015,34.05],[79.376,34.033],[79.584,34.238],[79.58,34.49],[79.794,34.485],[79.772,34.622],[79.861,34.689],[80.069,34.715],[80.073,34.828],[80.171,34.989],[80.184,35.167],[80.329,35.473],[80.295,35.602],[80.115,35.677],[79.999,35.838],[79.869,35.783],[79.746,35.8],[79.426,35.895],[79.387,35.99],[79.242,35.987],[79.118,35.837],[78.94,35.88],[78.658,35.854],[78.521,35.764],[78.273,35.722],[78.137,35.539],[77.967,35.575],[77.906,35.469],[77.517,35.489],[77.438,35.641],[77.358,35.718],[77.225,35.715],[77.12,35.796],[76.935,35.784],[76.804,35.85],[76.723,35.953],[76.801,36.049],[76.697,36.136],[76.482,36.211],[76.352,36.36],[76.255,36.348],[76.069,36.478],[75.923,36.502],[75.748,36.588],[75.616,36.762],[75.479,36.807],[75.345,37.003],[75.265,37.052],[75.136,36.957],[75.019,36.976],[74.914,36.909],[74.834,37.025],[74.709,37.078],[74.534,36.986],[74.429,36.99],[74.261,36.887],[74.052,36.807],[73.879,36.894],[73.711,36.913],[73.727,36.833],[73.864,36.788],[73.901,36.707],[73.701,36.685],[73.436,36.745],[73.085,36.682],[73.062,36.538],[72.877,36.438],[72.779,36.31],[72.597,36.264],[72.532,36.072],[72.596,36.027],[72.534,35.917],[72.691,35.833],[72.902,35.882],[72.929,35.846],[73.153,35.843],[73.139,35.719],[73.407,35.564],[73.639,35.571],[73.786,35.524],[73.796,35.462],[73.7,35.358],[73.778,35.244],[73.917,35.212],[74.124,35.105],[74.269,35.087],[74.521,35.106],[74.634,34.94],[74.928,34.813],[75.161,34.862],[75.232,34.795],[75.267,34.598],[75.392,34.543],[75.434,34.35],[75.631,34.223],[75.742,34.198],[75.794,34.103],[75.943,33.987],[76.057,33.986],[76.21,33.786],[76.25,33.608],[76.397,33.668],[76.665,33.429],[76.687,33.339],[76.796,33.255],[76.795,33.253]]]]}},{"type":"Feature","properties":{"ST_NM":"Chhattisgarh"},"geometry":{"type":"MultiPolygon","coordinates":[[[[80.275,18.722],[80.349,18.591],[80.496,18.632],[80.64,18.524],[80.792,18.249],[80.743,18.178],[80.957,18.13],[81.013,17.845],[81.082,17.794],[81.168,17.86],[81.394,17.814],[81.404,17.895],[81.485,17.981],[81.536,18.266],[81.77,18.418],[81.955,18.566],[81.963,18.687],[82.154,18.78],[82.179,18.898],[82.248,18.917],[82.16,19.271],[82.188,19.338],[82.054,19.544],[82.06,19.796],[81.866,19.904],[81.868,20.027],[81.941,20.103],[82.192,19.986],[82.269,19.976],[82.347,19.835],[82.483,19.906],[82.706,19.832],[82.719,19.988],[82.59,19.995],[82.403,20.054],[82.417,20.407],[82.341,20.844],[82.56,20.945],[82.63,21.04],[82.643,21.152],[82.987,21.161],[83.127,21.105],[83.2,21.143],[83.277,21.378],[83.401,21.403],[83.349,21.488],[83.388,21.616],[83.448,21.652],[83.498,21.811],[83.608,21.913],[83.542,21.966],[83.564,22.102],[83.653,22.227],[83.753,22.243],[83.868,22.346],[84.008,22.372],[84.01,22.523],[84.087,22.638],[84.239,22.691],[84.377,22.977],[84.224,22.978],[84.036,23.155],[84.077,23.331],[83.974,23.375],[84.028,23.601],[83.943,23.563],[83.782,23.6],[83.737,23.755],[83.589,23.862],[83.517,24.025],[83.331,24.101],[83.135,23.889],[82.961,23.872],[82.816,23.962],[82.662,23.905],[82.552,23.793],[82.207,23.83],[82.053,23.819],[82.008,23.861],[81.819,23.808],[81.71,23.861],[81.606,23.852],[81.695,23.72],[81.621,23.659],[81.613,23.509],[81.737,23.564],[81.835,23.51],[81.924,23.531],[81.978,23.423],[82.106,23.397],[82.195,23.321],[82.123,23.103],[81.946,23.077],[81.948,22.957],[81.777,22.873],[81.773,22.676],[81.686,22.649],[81.616,22.536],[81.523,22.536],[81.396,22.445],[81.33,22.524],[81.231,22.451],[81.117,22.441],[81.121,22.294],[80.924,22.121],[80.84,21.947],[80.818,21.748],[80.714,21.672],[80.737,21.473],[80.663,21.331],[80.646,21.256],[80.464,21.173],[80.431,21.01],[80.542,20.932],[80.55,20.793],[80.62,20.592],[80.624,20.328],[80.39,20.244],[80.458,20.147],[80.531,20.127],[80.551,19.984],[80.497,19.896],[80.547,19.778],[80.673,19.696],[80.728,19.612],[80.886,19.523],[80.795,19.431],[80.846,19.359],[80.757,19.291],[80.611,19.316],[80.567,19.401],[80.396,19.247],[80.388,19.185],[80.275,18.991],[80.354,18.815],[80.275,18.722]]]]}},{"type":"Feature","properties":{"ST_NM":"Maharashtra"},"geometry":{"type":"MultiPolygon","coordinates":[[[[80.663,21.331],[80.6,21.325],[80.455,21.403],[80.377,21.521],[80.267,21.62],[80.195,21.634],[80.07,21.554],[79.863,21.53],[79.739,21.602],[79.582,21.543],[79.495,21.673],[79.241,21.714],[79.11,21.608],[78.98,21.616],[78.937,21.486],[78.626,21.476],[78.427,21.6],[78.185,21.557],[78.174,21.497],[77.903,21.377],[77.674,21.371],[77.562,21.396],[77.442,21.471],[77.571,21.528],[77.562,21.666],[77.5,21.747],[77.28,21.757],[77.21,21.692],[77.072,21.719],[76.894,21.598],[76.798,21.595],[76.794,21.488],[76.628,21.328],[76.625,21.191],[76.492,21.196],[76.377,21.075],[76.184,21.088],[76.16,21.257],[76.099,21.372],[75.969,21.392],[75.619,21.391],[75.547,21.37],[75.218,21.409],[75.105,21.467],[75.056,21.563],[74.859,21.63],[74.822,21.608],[74.586,21.663],[74.509,21.722],[74.524,21.907],[74.385,22.018],[74.288,21.935],[74.142,21.952],[73.822,21.811],[73.885,21.709],[73.819,21.597],[73.855,21.495],[74.063,21.558],[74.287,21.557],[74.302,21.478],[74.052,21.454],[73.956,21.392],[73.943,21.296],[73.826,21.266],[73.792,21.067],[73.939,20.839],[73.934,20.768],[73.836,20.701],[73.84,20.623],[73.741,20.567],[73.451,20.714],[73.432,20.595],[73.468,20.495],[73.406,20.381],[73.418,20.201],[73.302,20.207],[73.207,20.122],[73.153,20.073],[72.994,20.118],[72.96,20.213],[72.873,20.227],[72.729,20.137],[72.704,20.081],[72.735,19.91],[72.644,19.839],[72.72,19.619],[72.818,19.123],[72.811,18.894],[72.865,18.804],[72.853,18.693],[72.908,18.579],[72.892,18.459],[72.971,18.129],[73.034,17.936],[73.138,17.719],[73.145,17.549],[73.282,17.111],[73.282,16.893],[73.353,16.621],[73.315,16.539],[73.474,16.096],[73.488,15.975],[73.59,15.91],[73.676,15.728],[73.777,15.725],[73.857,15.8],[73.937,15.744],[73.995,15.611],[74.119,15.652],[74.161,15.751],[74.345,15.766],[74.364,15.878],[74.429,15.953],[74.503,16.225],[74.342,16.293],[74.332,16.454],[74.27,16.522],[74.49,16.629],[74.569,16.554],[74.774,16.75],[74.912,16.787],[74.908,16.857],[75,16.947],[75.227,16.843],[75.282,16.955],[75.466,16.987],[75.491,16.947],[75.667,16.985],[75.673,17.115],[75.604,17.305],[75.634,17.479],[75.931,17.326],[76.121,17.368],[76.229,17.365],[76.383,17.314],[76.332,17.596],[76.417,17.606],[76.525,17.76],[76.694,17.707],[76.954,18.039],[76.956,18.186],[77.06,18.154],[77.209,18.279],[77.243,18.41],[77.404,18.399],[77.411,18.301],[77.554,18.293],[77.586,18.445],[77.751,18.591],[77.841,18.809],[77.903,18.869],[77.858,18.954],[77.771,18.983],[77.765,19.063],[77.849,19.115],[77.865,19.303],[77.953,19.342],[78.05,19.272],[78.188,19.243],[78.192,19.397],[78.314,19.457],[78.316,19.605],[78.402,19.837],[78.851,19.759],[78.864,19.658],[78.975,19.651],[79.024,19.542],[79.195,19.461],[79.261,19.613],[79.477,19.5],[79.549,19.551],[79.784,19.6],[79.918,19.495],[79.98,19.404],[79.865,19.107],[79.933,19.046],[79.939,18.788],[80.019,18.771],[80.114,18.682],[80.275,18.722],[80.354,18.815],[80.275,18.991],[80.388,19.185],[80.396,19.247],[80.567,19.401],[80.611,19.316],[80.757,19.291],[80.846,19.359],[80.795,19.431],[80.886,19.523],[80.728,19.612],[80.673,19.696],[80.547,19.778],[80.497,19.896],[80.551,19.984],[80.531,20.127],[80.458,20.147],[80.39,20.244],[80.624,20.328],[80.62,20.592],[80.55,20.793],[80.542,20.932],[80.431,21.01],[80.464,21.173],[80.646,21.256],[80.663,21.331]],[[77.301,18.477],[77.294,18.458],[77.268,18.453],[77.275,18.475],[77.301,18.477]],[[74.309,15.799],[74.265,15.797],[74.29,15.831],[74.309,15.799]]]]}},{"type":"Feature","properties":{"ST_NM":"Manipur"},"geometry":{"type":"MultiPolygon","coordinates":[[[[94.681,25.453],[94.424,25.547],[94.302,25.489],[94.091,25.528],[94.012,25.57],[93.836,25.559],[93.78,25.42],[93.607,25.198],[93.474,25.305],[93.403,25.259],[93.335,25.092],[93.246,25.001],[93.253,24.915],[93.192,24.803],[93.112,24.799],[93.096,24.579],[93,24.4],[93.034,24.315],[92.985,24.126],[93.128,24.061],[93.336,24.05],[93.414,24.075],[93.47,23.966],[93.614,24.006],[93.76,23.999],[93.806,23.928],[94.015,23.928],[94.159,23.847],[94.243,24.038],[94.26,24.162],[94.463,24.569],[94.549,24.71],[94.608,24.715],[94.639,24.842],[94.74,25.018],[94.744,25.13],[94.6,25.189],[94.597,25.283],[94.681,25.453]]]]}},{"type":"Feature","properties":{"ST_NM":"Meghalaya"},"geometry":{"type":"MultiPolygon","coordinates":[[[[92.425,25.03],[92.525,25.138],[92.622,25.115],[92.747,25.205],[92.793,25.284],[92.651,25.429],[92.588,25.551],[92.418,25.738],[92.238,25.707],[92.155,25.811],[92.168,25.963],[92.135,26.044],[91.886,26.029],[91.822,26.118],[91.734,26.058],[91.723,25.953],[91.633,25.944],[91.573,26.026],[91.471,25.858],[91.335,25.831],[91.227,25.723],[91.156,25.849],[91.07,25.825],[90.961,25.933],[90.744,25.915],[90.538,25.958],[90.481,26.015],[90.328,25.974],[90.118,25.957],[89.898,25.727],[90.006,25.584],[89.89,25.558],[89.856,25.477],[89.817,25.369],[90.115,25.224],[90.513,25.168],[90.911,25.161],[91.268,25.206],[91.496,25.134],[91.606,25.173],[92.078,25.186],[92.232,25.097],[92.425,25.03]]]]}},{"type":"Feature","properties":{"ST_NM":"Mizoram"},"geometry":{"type":"MultiPolygon","coordinates":[[[[93.336,24.05],[93.128,24.061],[92.985,24.126],[93.034,24.315],[93,24.4],[92.831,24.397],[92.765,24.518],[92.691,24.354],[92.529,24.173],[92.422,24.251],[92.296,24.25],[92.324,24.204],[92.331,23.91],[92.259,23.813],[92.268,23.724],[92.393,23.264],[92.357,23.234],[92.397,23.051],[92.375,22.934],[92.459,22.873],[92.521,22.701],[92.609,22.127],[92.706,22.152],[92.892,22.01],[92.998,22.053],[93.051,22.201],[93.16,22.179],[93.199,22.278],[93.188,22.424],[93.132,22.472],[93.143,22.583],[93.096,22.698],[93.097,22.807],[93.16,22.91],[93.131,23.044],[93.3,23.005],[93.356,23.074],[93.392,23.22],[93.377,23.329],[93.431,23.578],[93.397,23.926],[93.336,24.05]]]]}},{"type":"Feature","properties":{"ST_NM":"Rajasthan"},"geometry":{"type":"MultiPolygon","coordinates":[[[[74.529,29.943],[73.9,29.971],[73.976,30.196],[73.803,30.071],[73.62,30.025],[73.394,29.929],[73.271,29.546],[72.949,29.033],[72.747,28.952],[72.407,28.783],[72.312,28.686],[72.205,28.39],[71.999,28.214],[71.932,28.128],[71.899,27.963],[71.659,27.876],[71.41,27.873],[71.208,27.833],[70.905,27.71],[70.768,27.725],[70.687,27.828],[70.677,27.924],[70.592,28.01],[70.374,28.012],[70.135,27.807],[70.025,27.561],[69.872,27.409],[69.59,27.183],[69.515,27.014],[69.484,26.808],[69.515,26.742],[69.879,26.581],[70.048,26.601],[70.173,26.551],[70.172,26.231],[70.086,26.088],[70.099,25.935],[70.276,25.709],[70.391,25.674],[70.594,25.712],[70.673,25.669],[70.665,25.398],[70.886,25.151],[70.936,24.941],[71.098,24.687],[71.289,24.613],[71.48,24.678],[71.654,24.637],[71.777,24.672],[72.079,24.655],[72.289,24.54],[72.352,24.554],[72.459,24.409],[72.537,24.506],[72.654,24.457],[72.728,24.362],[72.973,24.359],[72.977,24.451],[73.183,24.335],[73.079,24.185],[73.22,24.098],[73.41,24.05],[73.416,23.922],[73.356,23.854],[73.396,23.783],[73.567,23.652],[73.657,23.622],[73.629,23.451],[73.824,23.445],[73.891,23.335],[74.021,23.331],[74.133,23.263],[74.124,23.177],[74.247,23.176],[74.32,23.06],[74.389,23.11],[74.534,23.099],[74.668,23.199],[74.532,23.32],[74.612,23.459],[74.851,23.554],[74.941,23.732],[74.905,23.865],[74.993,24.026],[74.854,24.267],[74.755,24.276],[74.858,24.448],[74.758,24.486],[74.749,24.594],[75.001,24.705],[75.014,24.79],[74.86,24.81],[74.828,24.896],[75.045,24.856],[75.121,24.885],[75.157,25.025],[75.313,25.042],[75.34,24.959],[75.303,24.812],[75.23,24.731],[75.454,24.689],[75.616,24.684],[75.745,24.756],[75.842,24.726],[75.855,24.61],[75.928,24.534],[75.906,24.442],[75.738,24.399],[75.815,24.297],[75.746,24.136],[75.782,24.058],[75.702,23.965],[75.516,24.045],[75.458,23.917],[75.651,23.796],[75.978,23.929],[75.963,24.021],[76.137,24.091],[76.126,24.201],[76.356,24.245],[76.467,24.225],[76.527,24.159],[76.62,24.258],[76.795,24.121],[76.904,24.127],[76.948,24.194],[76.841,24.356],[76.856,24.465],[76.965,24.456],[77.055,24.522],[77.024,24.71],[76.851,24.765],[76.954,24.868],[76.874,25.006],[76.989,25.073],[77.082,25.053],[77.175,25.109],[77.308,25.079],[77.392,25.117],[77.412,25.221],[77.311,25.431],[77.159,25.308],[77.081,25.335],[76.964,25.292],[76.778,25.311],[76.607,25.384],[76.525,25.525],[76.535,25.793],[76.647,25.901],[76.801,25.939],[76.901,26.093],[77.12,26.226],[77.274,26.271],[77.435,26.401],[77.53,26.409],[77.679,26.504],[77.821,26.549],[78,26.697],[78.096,26.681],[78.104,26.784],[78.218,26.83],[78.241,26.928],[78.148,26.951],[78.051,26.91],[77.88,26.9],[77.773,26.932],[77.724,26.876],[77.528,26.816],[77.49,26.898],[77.7,26.973],[77.567,27.043],[77.553,27.11],[77.663,27.17],[77.583,27.321],[77.44,27.394],[77.349,27.519],[77.351,27.647],[77.285,27.801],[77.047,27.815],[76.979,27.652],[76.897,27.714],[76.935,27.829],[76.927,27.992],[76.971,28.139],[76.842,28.22],[76.8,28.152],[76.547,28.034],[76.481,28.145],[76.368,28.139],[76.162,27.988],[76.214,27.843],[75.983,27.86],[75.963,27.984],[76.061,28.22],[75.931,28.365],[75.637,28.542],[75.564,28.611],[75.497,28.856],[75.52,29.008],[75.444,29.014],[75.37,29.14],[75.389,29.261],[75.087,29.23],[74.962,29.28],[74.936,29.363],[74.785,29.359],[74.579,29.405],[74.615,29.752],[74.481,29.744],[74.563,29.865],[74.529,29.943]]]]}},{"type":"Feature","properties":{"ST_NM":"Sikkim"},"geometry":{"type":"MultiPolygon","coordinates":[[[[88.017,27.216],[88.16,27.111],[88.312,27.128],[88.439,27.081],[88.599,27.194],[88.759,27.148],[88.808,27.247],[88.906,27.275],[88.791,27.455],[88.775,27.565],[88.854,27.669],[88.888,27.895],[88.76,28.073],[88.583,28.085],[88.397,27.977],[88.253,27.948],[88.151,27.669],[88.047,27.493],[88.062,27.329],[88.017,27.216]]]]}},{"type":"Feature","properties":{"ST_NM":"Uttarakhand"},"geometry":{"type":"MultiPolygon","coordinates":[[[[78.922,31.254],[79.012,31.112],[78.895,31.099],[78.81,31.2],[78.616,31.231],[78.485,31.199],[78.384,31.283],[78.248,31.23],[77.917,31.154],[77.768,30.972],[77.798,30.867],[77.702,30.764],[77.789,30.636],[77.813,30.506],[77.576,30.4],[77.93,30.251],[77.909,30.181],[77.771,30.041],[77.716,29.862],[77.77,29.711],[77.958,29.682],[77.991,29.549],[78.344,29.79],[78.5,29.736],[78.524,29.645],[78.706,29.503],[78.913,29.45],[78.869,29.38],[78.74,29.307],[78.876,29.243],[78.917,29.157],[79.085,29.146],[79.291,28.959],[79.678,28.842],[79.786,28.886],[79.852,28.803],[80,28.711],[80.07,28.829],[80.067,28.919],[80.19,29.133],[80.272,29.143],[80.317,29.323],[80.303,29.486],[80.414,29.598],[80.37,29.725],[80.49,29.794],[80.573,29.923],[80.682,29.961],[80.875,30.131],[81.043,30.199],[81.008,30.265],[80.826,30.314],[80.608,30.477],[80.545,30.455],[80.226,30.577],[80.252,30.735],[80.174,30.807],[79.93,30.887],[79.867,30.975],[79.753,31.001],[79.605,30.937],[79.517,31.034],[79.428,31.032],[79.315,31.144],[79.264,31.291],[79.145,31.434],[79.073,31.467],[78.922,31.254]]]]}},{"type":"Feature","properties":{"ST_NM":"Jharkhand"},"geometry":{"type":"MultiPolygon","coordinates":[[[[83.506,24.526],[83.401,24.5],[83.442,24.346],[83.331,24.101],[83.517,24.025],[83.589,23.862],[83.737,23.755],[83.782,23.6],[83.943,23.563],[84.028,23.601],[83.974,23.375],[84.077,23.331],[84.036,23.155],[84.224,22.978],[84.377,22.977],[84.239,22.691],[84.087,22.638],[84.01,22.523],[84.144,22.469],[84.201,22.374],[84.296,22.34],[84.433,22.355],[84.509,22.418],[84.887,22.42],[85.058,22.482],[85.112,22.294],[85.032,22.157],[85.217,22.047],[85.369,22.158],[85.597,22.078],[85.785,22.04],[85.9,21.982],[86.032,22.189],[85.976,22.247],[86.027,22.385],[85.959,22.459],[86.107,22.494],[86.293,22.429],[86.43,22.31],[86.505,22.345],[86.728,22.219],[86.825,22.265],[86.849,22.4],[86.761,22.578],[86.657,22.579],[86.642,22.658],[86.422,22.78],[86.438,22.919],[86.399,22.977],[86.218,22.995],[86.043,23.146],[85.921,23.132],[85.841,23.194],[85.866,23.453],[86.047,23.492],[86.145,23.572],[86.231,23.438],[86.358,23.466],[86.364,23.545],[86.451,23.633],[86.534,23.631],[86.717,23.699],[86.798,23.689],[86.901,23.882],[87.154,23.796],[87.298,23.892],[87.338,24.033],[87.444,23.98],[87.502,24.117],[87.585,24.163],[87.695,24.151],[87.686,24.248],[87.803,24.384],[87.801,24.564],[87.892,24.564],[87.906,24.723],[87.845,24.739],[87.967,24.937],[87.778,25.1],[87.793,25.221],[87.69,25.311],[87.573,25.334],[87.479,25.241],[87.33,25.224],[87.297,25.09],[87.183,25.065],[87.153,24.863],[87.083,24.809],[87.05,24.625],[86.942,24.631],[86.861,24.551],[86.798,24.616],[86.675,24.562],[86.606,24.6],[86.422,24.38],[86.319,24.509],[86.299,24.587],[86.132,24.612],[86.112,24.736],[85.957,24.732],[85.885,24.801],[85.784,24.799],[85.667,24.675],[85.672,24.582],[85.286,24.519],[85.176,24.43],[85.039,24.425],[84.911,24.372],[84.827,24.525],[84.462,24.338],[84.343,24.395],[84.329,24.489],[84.054,24.611],[83.936,24.547],[83.725,24.504],[83.506,24.526]],[[84.507,24.263],[84.497,24.277],[84.505,24.282],[84.511,24.268],[84.507,24.263]]]]}},{"type":"Feature","properties":{"ST_NM":"NCT of Delhi"},"geometry":{"type":"MultiPolygon","coordinates":[[[[77.348,28.503],[77.305,28.556],[77.338,28.686],[77.205,28.797],[77.197,28.862],[77.06,28.868],[76.952,28.816],[76.956,28.678],[76.843,28.577],[76.889,28.519],[77.025,28.528],[77.237,28.464],[77.348,28.503]]]]}},{"type":"Feature","properties":{"ST_NM":"Telangana"},"geometry":{"type":"MultiPolygon","coordinates":[[[[77.554,18.293],[77.601,18.154],[77.61,18.02],[77.657,17.972],[77.53,17.829],[77.543,17.728],[77.461,17.701],[77.444,17.584],[77.661,17.524],[77.525,17.365],[77.46,17.348],[77.384,17.223],[77.38,17.141],[77.467,17.107],[77.503,17.011],[77.457,16.913],[77.476,16.8],[77.421,16.667],[77.458,16.611],[77.289,16.407],[77.416,16.367],[77.523,16.375],[77.492,16.254],[77.514,15.926],[77.805,15.871],[77.894,15.901],[78.108,15.834],[78.249,15.943],[78.275,16.041],[78.412,16.087],[78.566,16.063],[78.644,16.098],[78.746,16.028],[78.929,16.129],[78.916,16.198],[79.028,16.251],[79.185,16.224],[79.233,16.257],[79.238,16.526],[79.274,16.568],[79.435,16.589],[79.783,16.737],[79.951,16.64],[80.056,16.753],[80,16.871],[80.054,16.973],[80.271,17.018],[80.328,16.879],[80.572,16.771],[80.593,16.935],[80.451,16.953],[80.505,17.109],[80.569,17.146],[80.693,17.077],[80.832,17.046],[80.914,17.209],[80.994,17.188],[81.172,17.241],[81.199,17.336],[81.394,17.364],[81.502,17.457],[81.512,17.598],[81.632,17.771],[81.803,17.852],[81.767,17.901],[81.62,17.823],[81.394,17.814],[81.168,17.86],[81.082,17.794],[81.013,17.845],[80.957,18.13],[80.743,18.178],[80.792,18.249],[80.64,18.524],[80.496,18.632],[80.349,18.591],[80.275,18.722],[80.114,18.682],[80.019,18.771],[79.939,18.788],[79.933,19.046],[79.865,19.107],[79.98,19.404],[79.918,19.495],[79.784,19.6],[79.549,19.551],[79.477,19.5],[79.261,19.613],[79.195,19.461],[79.024,19.542],[78.975,19.651],[78.864,19.658],[78.851,19.759],[78.402,19.837],[78.316,19.605],[78.314,19.457],[78.192,19.397],[78.188,19.243],[78.05,19.272],[77.953,19.342],[77.865,19.303],[77.849,19.115],[77.765,19.063],[77.771,18.983],[77.858,18.954],[77.903,18.869],[77.841,18.809],[77.751,18.591],[77.586,18.445],[77.554,18.293]]]]}}]}